{
  "The Lowry Pier Eight": {
    "name": "The Lowry Pier Eight",
    "city": "Manchester",
    "postcode": "M50 3AZ"
  },
  "Great Northern Warehouse": {
    "name": "Great Northern Warehouse",
    "city": "Manchester",
    "postcode": "M3 4EW"
  },
  "Lowry Gallery": {
    "name": "Lowry Gallery",
    "city": "Manchester",
    "postcode": "M50 3AZ"
  },
  "The Northern - Albert Halls Bolton": {
    "name": "The Northern - Albert Halls Bolton",
    "city": "Bolton",
    "postcode": null
  },
  "Lady Boys Add-On Packages": {
    "name": "Lady Boys Add-On Packages",
    "city": "Add-On Packages",
    "postcode": null
  },
  "Lowry Academy Education Activity 100": {
    "name": "Lowry Academy Education Activity 100",
    "city": "Manchester",
    "postcode": null
  },
  "Manchester Town Hall": {
    "name": "Manchester Town Hall",
    "city": "Manchester",
    "postcode": "M60 2LA"
  },
  "Lowry Day Pass": {
    "name": "Lowry Day Pass",
    "city": "Manchester",
    "postcode": "M50 3AZ"
  },
  "Bolton Winter Wonderland Grotto": {
    "name": "Bolton Winter Wonderland Grotto",
    "city": "Bolton",
    "postcode": "BL1 1SA"
  },
  "The Sabai Pavilion - Derby 2017": {
    "name": "The Sabai Pavilion - Derby 2017",
    "city": "Derby",
    "postcode": "DE1 3AH"
  },
  "The Studio 200": {
    "name": "The Studio 200",
    "city": "Manchester",
    "postcode": null
  },
  "East Lancashire Railway (General Admission)": {
    "name": "East Lancashire Railway (General Admission)",
    "city": "Bury",
    "postcode": "BL9 0EY"
  },
  "Zippos Circus Phoenix (South East)": {
    "name": "Zippos Circus Phoenix (South East)",
    "city": "National",
    "postcode": null
  },
  "East Lancashire Railway (Dining)": {
    "name": "East Lancashire Railway (Dining)",
    "city": "Bury",
    "postcode": "BL9 0EY"
  },
  "Selfridges Ice Rink": {
    "name": "Selfridges Ice Rink",
    "city": "Manchester",
    "postcode": null
  },
  "Birmingham NEC": {
    "name": "Birmingham NEC",
    "city": "Birmingham",
    "postcode": "B40 1NT"
  },
  "Lowry School Workshops": {
    "name": "Lowry School Workshops",
    "city": "Manchester",
    "postcode": null
  },
  "East Lancashire Railway (8 Carriages)": {
    "name": "East Lancashire Railway (8 Carriages)",
    "city": "Bury",
    "postcode": "BL9 0EY"
  },
  "Bolton Octagon (End)": {
    "name": "Bolton Octagon (End)",
    "city": "Bolton",
    "postcode": "BL1 1SB"
  },
  "Ice Cube - Millennium Square": {
    "name": "Ice Cube - Millennium Square",
    "city": "Leeds",
    "postcode": "LS2 8HD"
  },
  "O2 Apollo Manchester (Seated)": {
    "name": "O2 Apollo Manchester (Seated)",
    "city": "Manchester",
    "postcode": "M12 6AP"
  },
  "Slung Low's HUB": {
    "name": "Slung Low's HUB",
    "city": "Leeds",
    "postcode": "LS11 9QX"
  },
  "Lowry Lyric": {
    "name": "Lowry Lyric",
    "city": "The Lowry",
    "postcode": "M50 3AZ"
  },
  "The Three Minute Theatre, Affleck's Palace": {
    "name": "The Three Minute Theatre, Affleck's Palace",
    "city": "Manchester",
    "postcode": "M1 1JG"
  },
  "Gandeys Circus Big Top": {
    "name": "Gandeys Circus Big Top",
    "city": "National",
    "postcode": null
  },
  "Royal Exchange Main": {
    "name": "Royal Exchange Main",
    "city": "Manchester",
    "postcode": "M2 7DH"
  },
  "Lowry Quays": {
    "name": "Lowry Quays",
    "city": "The Lowry",
    "postcode": "M50 3AZ"
  },
  "Spirit of the Horse": {
    "name": "Spirit of the Horse",
    "city": "National",
    "postcode": null
  },
  "Trapped Up North Quarantine": {
    "name": "Trapped Up North Quarantine",
    "city": "Manchester",
    "postcode": "M3 4EN"
  },
  "The Lowry Quay Club": {
    "name": "The Lowry Quay Club",
    "city": "The Lowry",
    "postcode": "M50 3AZ"
  },
  "Stockport Plaza": {
    "name": "Stockport Plaza",
    "city": "Stockport",
    "postcode": "SK1 1SP"
  },
  "Lyric Theatre 1800": {
    "name": "Lyric Theatre 1800",
    "city": "Manchester",
    "postcode": null
  },
  "Dancehouse": {
    "name": "Dancehouse",
    "city": "Manchester",
    "postcode": "M1 5QA"
  },
  "Lowry Studio": {
    "name": "Lowry Studio",
    "city": "The Lowry",
    "postcode": "M50 3AZ"
  },
  "Zippos Circus (South East)": {
    "name": "Zippos Circus (South East)",
    "city": "National",
    "postcode": null
  },
  "Lowry Family Activity": {
    "name": "Lowry Family Activity",
    "city": "Manchester",
    "postcode": "M50 3AZ"
  },
  "The Sabai Pavilion - Brighton 2017": {
    "name": "The Sabai Pavilion - Brighton 2017",
    "city": "Brighton",
    "postcode": "BN1 1UB"
  },
  "East Lancashire Railway (Add Ons)": {
    "name": "East Lancashire Railway (Add Ons)",
    "city": "Bury",
    "postcode": "BL9 0EY"
  },
  "Gandeys Circus Big Top 2020": {
    "name": "Gandeys Circus Big Top 2020",
    "city": "National",
    "postcode": null
  },
  "Quays Theatre 500": {
    "name": "Quays Theatre 500",
    "city": "Manchester",
    "postcode": null
  },
  "Lowry General Admission": {
    "name": "Lowry General Admission",
    "city": "Salford",
    "postcode": "M50 3AZ"
  },
  "Princess Katherine": {
    "name": "Princess Katherine",
    "city": "Salford",
    "postcode": "M50 3AZ"
  },
  "The Hayloft, Bridport": {
    "name": "The Hayloft, Bridport",
    "city": "Bridport",
    "postcode": "DT6 3LF"
  },
  "Brent Cross Shopping Centre": {
    "name": "Brent Cross Shopping Centre",
    "city": "London",
    "postcode": "NW4 3FP"
  },
  "Waterstones Deansgate": {
    "name": "Waterstones Deansgate",
    "city": "Manchester",
    "postcode": "M3 1SB"
  },
  "Ramsbottom Civic Hall (unreserved)": {
    "name": "Ramsbottom Civic Hall (unreserved)",
    "city": "Bury",
    "postcode": "BL0 9AJ"
  },
  "Bolton Town Centre": {
    "name": "Bolton Town Centre",
    "city": "Bolton",
    "postcode": "BL1 1SA"
  },
  "Manchester Water Taxis": {
    "name": "Manchester Water Taxis",
    "city": "Manchester",
    "postcode": "M50 3AZ"
  },
  "Trapped Up North Cabin Fever": {
    "name": "Trapped Up North Cabin Fever",
    "city": "Manchester",
    "postcode": "M3 4EN"
  },
  "Avon Valley Railway (Santa's Layout)": {
    "name": "Avon Valley Railway (Santa's Layout)",
    "city": "Bristol",
    "postcode": "BS30 6HD"
  },
  "Lyric Theatre 1000": {
    "name": "Lyric Theatre 1000",
    "city": "Manchester",
    "postcode": null
  },
  "Lowry Quays (Cabaret)": {
    "name": "Lowry Quays (Cabaret)",
    "city": "The Lowry",
    "postcode": "M50 3AZ"
  },
  "Squire's Washington Garden Centre": {
    "name": "Squire's Washington Garden Centre",
    "city": "Pulborough",
    "postcode": "RH20 3BP"
  },
  "Lowry Quays (Unreserved)": {
    "name": "Lowry Quays (Unreserved)",
    "city": "The Lowry",
    "postcode": "M50 3AZ"
  },
  "The Sabai Pavilion - Newcastle 2020": {
    "name": "The Sabai Pavilion - Newcastle 2020",
    "city": "Newcastle-upon-Tyne",
    "postcode": "NE1 4EP"
  },
  "Haigh Hall": {
    "name": "Haigh Hall",
    "city": "Wigan",
    "postcode": "WN1 2PE"
  },
  "East Lancashire Railway (Dining 3 carriage 2018)": {
    "name": "East Lancashire Railway (Dining 3 carriage 2018)",
    "city": "Bury",
    "postcode": "BL9 0EY"
  },
  "General Admission 100": {
    "name": "General Admission 100",
    "city": "Manchester",
    "postcode": null
  },
  "Lock 91 - Lock Keeper's Cottage": {
    "name": "Lock 91 - Lock Keeper's Cottage",
    "city": "Manchester",
    "postcode": "M3 4QL"
  },
  "NEW Zippos Circus (Scotland)": {
    "name": "NEW Zippos Circus (Scotland)",
    "city": "Scotland",
    "postcode": null
  },
  "ZZZ_Sabai Pavilion": {
    "name": "ZZZ_Sabai Pavilion",
    "city": "National",
    "postcode": null
  },
  "Custom House Square": {
    "name": "Custom House Square",
    "city": "Belfast",
    "postcode": "BT1 3FG"
  },
  "zzz_The Sabai Pavilion - Newcastle": {
    "name": "zzz_The Sabai Pavilion - Newcastle",
    "city": "Newcastle-upon-Tyne",
    "postcode": "NE1 4EP"
  },
  "Lowry Studio (Unreserved)": {
    "name": "Lowry Studio (Unreserved)",
    "city": "The Lowry",
    "postcode": "M50 3AZ"
  },
  "Nexus Art Cafe": {
    "name": "Nexus Art Cafe",
    "city": "Manchester",
    "postcode": "M1 1JW"
  },
  "ZZZ_ELR": {
    "name": "ZZZ_ELR",
    "city": "Bury",
    "postcode": "BL9 0EY"
  },
  "Stockport Plaza (Films)": {
    "name": "Stockport Plaza (Films)",
    "city": "Stockport",
    "postcode": "SK1 1SP"
  },
  "Trapped Up North Jigsaw": {
    "name": "Trapped Up North Jigsaw",
    "city": "Manchester",
    "postcode": "M3 4EN"
  },
  "Event City": {
    "name": "Event City",
    "city": "Manchester",
    "postcode": "M41 7TB"
  },
  "Elizabeth Gaskell's House": {
    "name": "Elizabeth Gaskell's House",
    "city": "Manchester",
    "postcode": "M13 9LW"
  },
  "MediaCityUK, Salford Quays": {
    "name": "MediaCityUK, Salford Quays",
    "city": "Manchester",
    "postcode": "M50 3AZ"
  },
  "Circus of the Orient": {
    "name": "Circus of the Orient",
    "city": "National",
    "postcode": null
  },
  "Bolton Albert Halls Theatre": {
    "name": "Bolton Albert Halls Theatre",
    "city": "Bolton",
    "postcode": "BL1 1RU"
  },
  "Stockport Garrick Theatre": {
    "name": "Stockport Garrick Theatre",
    "city": "Stockport",
    "postcode": "SK3 0EJ"
  },
  "Gandeys 2020 Priority Access": {
    "name": "Gandeys 2020 Priority Access",
    "city": "National",
    "postcode": null
  },
  "Spinningfields Ice Rink": {
    "name": "Spinningfields Ice Rink",
    "city": "Manchester",
    "postcode": "M3 3AH"
  },
  "Cinnamon Club - Lounge": {
    "name": "Cinnamon Club - Lounge",
    "city": "Altrincham",
    "postcode": "WA14 2TQ"
  },
  "Gandeys General Admission Priority Access": {
    "name": "Gandeys General Admission Priority Access",
    "city": "National",
    "postcode": null
  },
  "Lowry Academy Family Activity 100": {
    "name": "Lowry Academy Family Activity 100",
    "city": "Manchester",
    "postcode": null
  },
  "Intu Trafford Centre": {
    "name": "Intu Trafford Centre",
    "city": "Manchester",
    "postcode": "M17 8AA"
  },
  "Sabai Pavilion - Newcastle/Aberdeen": {
    "name": "Sabai Pavilion - Newcastle/Aberdeen",
    "city": "National",
    "postcode": null
  },
  "Stockport Plaza (General Admission)": {
    "name": "Stockport Plaza (General Admission)",
    "city": "Stockport",
    "postcode": "SK1 1SP"
  },
  "East Lancashire Railway (Dining 2 carriage 2018)": {
    "name": "East Lancashire Railway (Dining 2 carriage 2018)",
    "city": "Bury",
    "postcode": "BL9 0EY"
  },
  "Band on the Wall": {
    "name": "Band on the Wall",
    "city": "Manchester",
    "postcode": "M4 5JZ"
  },
  "Avon Valley Railway, Bristol (General Admission)": {
    "name": "Avon Valley Railway, Bristol (General Admission)",
    "city": "Bristol",
    "postcode": "BS30 6HD"
  },
  "Manchester Rugby Club (USE)": {
    "name": "Manchester Rugby Club (USE)",
    "city": "Stockport",
    "postcode": "SK8 7NB"
  },
  "Oldham Coliseum": {
    "name": "Oldham Coliseum",
    "city": "Oldham",
    "postcode": "OL1 3SW"
  },
  "Lowry Youth Activity": {
    "name": "Lowry Youth Activity",
    "city": "Manchester",
    "postcode": "M50 3AZ"
  },
  "zzz_Sabai Pavilion - Edinburgh": {
    "name": "zzz_Sabai Pavilion - Edinburgh",
    "city": "Edinburgh",
    "postcode": null
  },
  "Lyric Theatre 1500": {
    "name": "Lyric Theatre 1500",
    "city": "Manchester",
    "postcode": null
  },
  "East Lancashire Railway (Dining 3 carriage)": {
    "name": "East Lancashire Railway (Dining 3 carriage)",
    "city": "Bury",
    "postcode": "BL9 0EY"
  },
  "Caledonian Railway (6 Carriages)": {
    "name": "Caledonian Railway (6 Carriages)",
    "city": "Scotland",
    "postcode": "DD9 7AF"
  },
  "Matt and Phred's": {
    "name": "Matt and Phred's",
    "city": "Manchester",
    "postcode": "M4 1LW"
  },
  "Bridport Arts Centre (Unreserved Seating)": {
    "name": "Bridport Arts Centre (Unreserved Seating)",
    "city": "Bridport",
    "postcode": "DT6 3NR"
  },
  "Bo’ness & Kinneil Railway, Bo’ness (GA)": {
    "name": "Bo’ness & Kinneil Railway, Bo’ness (GA)",
    "city": "Bo’ness",
    "postcode": "EH51 9AQ"
  },
  "The Festival Theatre at Hever Castle": {
    "name": "The Festival Theatre at Hever Castle",
    "city": "Edenbridge",
    "postcode": "TN8 7NG"
  },
  "Festival Square": {
    "name": "Festival Square",
    "city": "Manchester",
    "postcode": "M2 5DB"
  },
  "Lyric Theatre 400": {
    "name": "Lyric Theatre 400",
    "city": "Manchester",
    "postcode": null
  },
  "Lyric Theatre Stage Seating - General Admission": {
    "name": "Lyric Theatre Stage Seating - General Admission",
    "city": "Manchester",
    "postcode": "M50 3AZ"
  },
  "Lowry Access Activity": {
    "name": "Lowry Access Activity",
    "city": "Manchester",
    "postcode": "M50 3AZ"
  },
  "Bolton Octagon (Round)": {
    "name": "Bolton Octagon (Round)",
    "city": "Bolton",
    "postcode": "BL1 1SB"
  },
  "RNCM Theatre": {
    "name": "RNCM Theatre",
    "city": "Manchester",
    "postcode": "M13 9RD"
  },
  "International Anthony Burgess Foundation": {
    "name": "International Anthony Burgess Foundation",
    "city": "Manchester",
    "postcode": "M1 5BY"
  },
  "Zippos Circus Phoenix (West Midlands)": {
    "name": "Zippos Circus Phoenix (West Midlands)",
    "city": "National",
    "postcode": null
  },
  "The Studio Big Top - Edinburgh": {
    "name": "The Studio Big Top - Edinburgh",
    "city": "Edinburgh",
    "postcode": "EH3 9RX"
  },
  "Kirklees Light Railway (6 Carriages)": {
    "name": "Kirklees Light Railway (6 Carriages)",
    "city": "Huddersfield",
    "postcode": "HD8 9XJ"
  },
  "Mid Hants Railway (General Admission)": {
    "name": "Mid Hants Railway (General Admission)",
    "city": "Ropley",
    "postcode": "SO24 9JG"
  },
  "The Sabai Pavilion - Brighton": {
    "name": "The Sabai Pavilion - Brighton",
    "city": "Brighton",
    "postcode": "BN1 1UB"
  },
  "East Lancashire Railway (Dining 1 carriage 2018)": {
    "name": "East Lancashire Railway (Dining 1 carriage 2018)",
    "city": "Bury",
    "postcode": "BL9 0EY"
  },
  "General Admission 150": {
    "name": "General Admission 150",
    "city": "Manchester",
    "postcode": null
  },
  "Zippos Circus Horsepower (Scotland)": {
    "name": "Zippos Circus Horsepower (Scotland)",
    "city": "National",
    "postcode": null
  },
  "Circus Big Top - Edinburgh": {
    "name": "Circus Big Top - Edinburgh",
    "city": "Edinburgh",
    "postcode": "EH7 6AE"
  },
  "NEW Zippos Circus": {
    "name": "NEW Zippos Circus",
    "city": "National",
    "postcode": null
  },
  "Oldham Coliseum Theatre @ Grange Arts Centre": {
    "name": "Oldham Coliseum Theatre @ Grange Arts Centre",
    "city": "Oldham",
    "postcode": "OL9 6EA"
  },
  "Waterside Arts Centre (Reserved)": {
    "name": "Waterside Arts Centre (Reserved)",
    "city": "Sale",
    "postcode": "M33 7ZF"
  },
  "Bridgewater Hall": {
    "name": "Bridgewater Hall",
    "city": "Manchester",
    "postcode": "M2 3WS"
  },
  "Lowry Academy Youth Activity 100": {
    "name": "Lowry Academy Youth Activity 100",
    "city": "Manchester",
    "postcode": null
  },
  "Lowry Story Telling Tent": {
    "name": "Lowry Story Telling Tent",
    "city": "Manchester",
    "postcode": "M50 3AZ"
  },
  "Manchester City Library, Becker Room": {
    "name": "Manchester City Library, Becker Room",
    "city": "Manchester",
    "postcode": "M3 3WD"
  },
  "The Sabai Pavilion - Newcastle 2017": {
    "name": "The Sabai Pavilion - Newcastle 2017",
    "city": "Newcastle-upon-Tyne",
    "postcode": "NE1 4EP"
  },
  "Zippos Circus Horsepower (South East)": {
    "name": "Zippos Circus Horsepower (South East)",
    "city": "National",
    "postcode": null
  },
  "Re-Tale": {
    "name": "Re-Tale",
    "city": "Manchester",
    "postcode": "OL1 3TP"
  },
  "The Sabai Pavilion - Bournemouth": {
    "name": "The Sabai Pavilion - Bournemouth",
    "city": "Bournemouth",
    "postcode": "BH2 5AA"
  },
  "Northwich Memorial Court (reserved Seating)": {
    "name": "Northwich Memorial Court (reserved Seating)",
    "city": "Northwich",
    "postcode": null
  },
  "Barnfield Theatre": {
    "name": "Barnfield Theatre",
    "city": "Exeter",
    "postcode": "EX1 1SN"
  },
  "The Lowry Metrolink Travelcard": {
    "name": "The Lowry Metrolink Travelcard",
    "city": "Manchester",
    "postcode": "M50 3AZ"
  },
  "The Lass O'Gowrie": {
    "name": "The Lass O'Gowrie",
    "city": "Manchester",
    "postcode": "M1 7DB"
  },
  "RNCM Theatre with Pit Seats": {
    "name": "RNCM Theatre with Pit Seats",
    "city": "Manchester",
    "postcode": "M13 9RD"
  },
  "The Sabai Pavilion - Aberdeen 2017": {
    "name": "The Sabai Pavilion - Aberdeen 2017",
    "city": "Aberdeen",
    "postcode": "AB24 5EN"
  },
  "Sabai Pavilion": {
    "name": "Sabai Pavilion",
    "city": "National",
    "postcode": null
  },
  "Ice Rink": {
    "name": "Ice Rink",
    "city": "Leeds",
    "postcode": "LS2 3AD"
  },
  "Museum of Museums": {
    "name": "Museum of Museums",
    "city": "Manchester",
    "postcode": "M41 7TB"
  },
  "Gracie Fields Theatre": {
    "name": "Gracie Fields Theatre",
    "city": "Rochdale",
    "postcode": "OL11 5EF"
  },
  "Chorlton Green": {
    "name": "Chorlton Green",
    "city": "Manchester",
    "postcode": "M21 9HS"
  },
  "East Lancashire Railway (Dining 1 carr 48 seats )": {
    "name": "East Lancashire Railway (Dining 1 carr 48 seats )",
    "city": "Bury",
    "postcode": "BL9 0EY"
  },
  "Lowry Academy Adult Theatre Activity 100": {
    "name": "Lowry Academy Adult Theatre Activity 100",
    "city": "Manchester",
    "postcode": null
  },
  "MIF Manchester Town Hall": {
    "name": "MIF Manchester Town Hall",
    "city": "Manchester",
    "postcode": "M60 2LA"
  },
  "Manchester Visitor Information Centre": {
    "name": "Manchester Visitor Information Centre",
    "city": "Manchester",
    "postcode": "M1 4BT"
  },
  "Manchester Opera House": {
    "name": "Manchester Opera House",
    "city": "Manchester",
    "postcode": "M3 3HP"
  },
  "Theatre Big Top, Fountainbridge Site, (Venue 189)": {
    "name": "Theatre Big Top, Fountainbridge Site, (Venue 189)",
    "city": "Edinburgh",
    "postcode": "EH3 9RX"
  },
  "ZZZ - Event City": {
    "name": "ZZZ - Event City",
    "city": "Manchester",
    "postcode": "M41 7TB"
  },
  "The Wainwright Club": {
    "name": "The Wainwright Club",
    "city": "Blackpool",
    "postcode": "FY1 4JA"
  },
  "The Forum Theatre, Romiley (299 Layout)": {
    "name": "The Forum Theatre, Romiley (299 Layout)",
    "city": "Stockport",
    "postcode": "SK6 4EA"
  },
  "The Sabai Pavilion - Newcastle": {
    "name": "The Sabai Pavilion - Newcastle",
    "city": "Newcastle-upon-Tyne",
    "postcode": "NE1 4EP"
  },
  "Kent & East Sussex Railway (General Admission)": {
    "name": "Kent & East Sussex Railway (General Admission)",
    "city": "Kent",
    "postcode": "TN30 6HE"
  },
  "Midland Hotel": {
    "name": "Midland Hotel",
    "city": "Manchester",
    "postcode": "M60 2DS"
  },
  "The Sabai Pavilion - Belfast 2020": {
    "name": "The Sabai Pavilion - Belfast 2020",
    "city": "Belfast",
    "postcode": "BT1 3FG"
  },
  "MHC - Cosmo Rodewald Concert Hall (GA)": {
    "name": "MHC - Cosmo Rodewald Concert Hall (GA)",
    "city": "Manchester",
    "postcode": "M13 9PL"
  },
  "The Holbeck": {
    "name": "The Holbeck",
    "city": "Leeds",
    "postcode": "LS11 9QX"
  },
  "Gandeys Circus Big Top - Greatest Snowman": {
    "name": "Gandeys Circus Big Top - Greatest Snowman",
    "city": "National",
    "postcode": null
  },
  "Lowry Quays (In the Round)": {
    "name": "Lowry Quays (In the Round)",
    "city": "The Lowry",
    "postcode": "M50 3AZ"
  },
  "Wellington Country Park": {
    "name": "Wellington Country Park",
    "city": "Reading",
    "postcode": "RG7 1SP"
  },
  "East Anglian Railway Museum (General Admission)": {
    "name": "East Anglian Railway Museum (General Admission)",
    "city": "Colchester",
    "postcode": "C06 2DS"
  },
  "Salon Perdu": {
    "name": "Salon Perdu",
    "city": "Manchester",
    "postcode": "M2 4JW"
  },
  "Bolton Winter Wonderland Slide": {
    "name": "Bolton Winter Wonderland Slide",
    "city": "Bolton",
    "postcode": "BL1 1SA"
  },
  "The Kings Arms, Salford": {
    "name": "The Kings Arms, Salford",
    "city": "Salford",
    "postcode": "M3 6AN"
  },
  "ZZZ_Pavilion Theatre Reserved Seating": {
    "name": "ZZZ_Pavilion Theatre Reserved Seating",
    "city": "Manchester",
    "postcode": "M2 5PE"
  },
  "Bridport Arts Centre (Marlow Theatre)": {
    "name": "Bridport Arts Centre (Marlow Theatre)",
    "city": "Bridport",
    "postcode": "DT6 3NR"
  },
  "Opera House, Blackpool": {
    "name": "Opera House, Blackpool",
    "city": "Blackpool",
    "postcode": "FY1 1HL"
  },
  "Palace Theatre": {
    "name": "Palace Theatre",
    "city": "Manchester",
    "postcode": "M1 6FT"
  },
  "Lowry Adult Theatre Activity": {
    "name": "Lowry Adult Theatre Activity",
    "city": "Manchester",
    "postcode": "M50 3AZ"
  },
  "Didcot Railway Centre (General Admission)": {
    "name": "Didcot Railway Centre (General Admission)",
    "city": "Didcot",
    "postcode": "OX11 7NJ"
  },
  "Outdoor Events 500": {
    "name": "Outdoor Events 500",
    "city": "Manchester",
    "postcode": null
  },
  "The Sabai Pavilion - Brighton 2017 1": {
    "name": "The Sabai Pavilion - Brighton 2017 1",
    "city": "Brighton",
    "postcode": "BN1 1UB"
  },
  "Bolton Octagon (Thrust)": {
    "name": "Bolton Octagon (Thrust)",
    "city": "Bolton",
    "postcode": "BL1 1SB"
  },
  "The Sabai Pavilion - Edinburgh 2017": {
    "name": "The Sabai Pavilion - Edinburgh 2017",
    "city": "Edinburgh",
    "postcode": null
  },
  "Lowry Studio (Cabaret)": {
    "name": "Lowry Studio (Cabaret)",
    "city": "The Lowry",
    "postcode": "M50 3AZ"
  },
  "Central Library": {
    "name": "Central Library",
    "city": "Manchester",
    "postcode": "M2 5PD"
  },
  "The Electric Palace": {
    "name": "The Electric Palace",
    "city": "Bridport",
    "postcode": "DT6 3NY"
  },
  "Ellesmere Port Civic Hall": {
    "name": "Ellesmere Port Civic Hall",
    "city": "Ellesmere Port",
    "postcode": "CH65 0BE"
  },
  "Contact": {
    "name": "Contact",
    "city": "Manchester",
    "postcode": "M15 6JA"
  },
  "Avon Valley Railway, Dining (4 seats)": {
    "name": "Avon Valley Railway, Dining (4 seats)",
    "city": "Bristol",
    "postcode": "BS30 6HD"
  },
  "Campfield Market Hall - Seated": {
    "name": "Campfield Market Hall - Seated",
    "city": "Manchester",
    "postcode": "M3 4FH"
  },
  "The Grange Theatre": {
    "name": "The Grange Theatre",
    "city": "Northwich",
    "postcode": "CW8 1LU"
  },
  "Blackwell's Bookshop": {
    "name": "Blackwell's Bookshop",
    "city": "Manchester",
    "postcode": "M13 9GP"
  },
  "Ocean Terminal Big Top (WAR)": {
    "name": "Ocean Terminal Big Top (WAR)",
    "city": "Edinburgh",
    "postcode": "EH6 6JJ"
  },
  "NEW Zippos Circus (West Midlands)": {
    "name": "NEW Zippos Circus (West Midlands)",
    "city": "National",
    "postcode": null
  },
  "Zippos Circus (Scotland)": {
    "name": "Zippos Circus (Scotland)",
    "city": "National",
    "postcode": null
  },
  "Murrays' Mills": {
    "name": "Murrays' Mills",
    "city": "Manchester",
    "postcode": "M4 6JG"
  },
  "Royal Exchange Foyer": {
    "name": "Royal Exchange Foyer",
    "city": "Manchester",
    "postcode": "M2 7DH"
  },
  "Cinnamon Club - Ballroom": {
    "name": "Cinnamon Club - Ballroom",
    "city": "Altrincham",
    "postcode": "WA14 2TQ"
  },
  "The Sabai Pavilion - Brighton 2020": {
    "name": "The Sabai Pavilion - Brighton 2020",
    "city": "Brighton",
    "postcode": "BN1 2GR"
  },
  "Ocean Terminal Big Top (EICF)": {
    "name": "Ocean Terminal Big Top (EICF)",
    "city": "Edinburgh",
    "postcode": "EH6 6JJ"
  },
  "Chorlton Irish Club": {
    "name": "Chorlton Irish Club",
    "city": "Manchester",
    "postcode": "M21 9DJ"
  },
  "Bristol Festivals Unreserved": {
    "name": "Bristol Festivals Unreserved",
    "city": "Bristol",
    "postcode": null
  },
  "The Ruby Lounge": {
    "name": "The Ruby Lounge",
    "city": "Manchester",
    "postcode": "M4 1QB"
  },
  "Band on the Wall (Seating)": {
    "name": "Band on the Wall (Seating)",
    "city": "Manchester",
    "postcode": "M4 5JZ"
  },
  "Learning Space - Wordsworth Trust": {
    "name": "Learning Space - Wordsworth Trust",
    "city": "Cumbria",
    "postcode": "LA22 9SH"
  },
  "Castlefield Hotel": {
    "name": "Castlefield Hotel",
    "city": "Manchester",
    "postcode": "M3 4JR"
  },
  "Avon Valley Railway, Dining (3 seats)": {
    "name": "Avon Valley Railway, Dining (3 seats)",
    "city": "Bristol",
    "postcode": "BS30 6HD"
  },
  "New Century Hall - Seated": {
    "name": "New Century Hall - Seated",
    "city": "Manchester",
    "postcode": "M60 4ES"
  },
  "Zippos Circus Phoenix (North West)": {
    "name": "Zippos Circus Phoenix (North West)",
    "city": "National",
    "postcode": null
  },
  "North Norfolk Railway (General Admission)": {
    "name": "North Norfolk Railway (General Admission)",
    "city": "Norfolk",
    "postcode": "NR26 8RA"
  },
  "Great Northern Playhouse": {
    "name": "Great Northern Playhouse",
    "city": "Manchester",
    "postcode": "M3 4EN"
  },
  "Cinnamon Club - Club": {
    "name": "Cinnamon Club - Club",
    "city": "Altrincham",
    "postcode": "WA14 2TQ"
  },
  "Mitchell Arts Centre": {
    "name": "Mitchell Arts Centre",
    "city": "Stoke-on-Trent",
    "postcode": "ST1 4HG"
  },
  "The Sabai Pavilion - Cardiff 2017": {
    "name": "The Sabai Pavilion - Cardiff 2017",
    "city": "Cardiff",
    "postcode": "CF10 5AN"
  },
  "Mustard Tree, Ancoats": {
    "name": "Mustard Tree, Ancoats",
    "city": "Manchester",
    "postcode": "M4 6AG"
  },
  "Stockport Plaza (Café)": {
    "name": "Stockport Plaza (Café)",
    "city": "Stockport",
    "postcode": "SK1 1SP"
  },
  "Circus Big Top": {
    "name": "Circus Big Top",
    "city": "Belfast",
    "postcode": "BT1 3FG"
  },
  "Gallery Oldham": {
    "name": "Gallery Oldham",
    "city": "Oldham",
    "postcode": "OL1 1AL"
  },
  "Pond Square, Highgate": {
    "name": "Pond Square, Highgate",
    "city": "London",
    "postcode": "N6 6BA"
  },
  "MHC - John Thaw Studio Theatre": {
    "name": "MHC - John Thaw Studio Theatre",
    "city": "Manchester",
    "postcode": "M13 9PL"
  },
  "AXM Manchester": {
    "name": "AXM Manchester",
    "city": "Manchester",
    "postcode": "M1 3LY"
  },
  "Egremont Library - Wordsworth Trust": {
    "name": "Egremont Library - Wordsworth Trust",
    "city": "Cumbria",
    "postcode": "CA22 2DQ"
  },
  "The Studio Big Top (TSB)": {
    "name": "The Studio Big Top (TSB)",
    "city": "Brighton and Hove",
    "postcode": "BN1 1UG"
  },
  "The Sabai Pavilion - Derby": {
    "name": "The Sabai Pavilion - Derby",
    "city": "Derby",
    "postcode": "DE1 3AH"
  },
  "Buckinghamshire Railway Centre": {
    "name": "Buckinghamshire Railway Centre",
    "city": "Aylesbury",
    "postcode": "HP22 4BY"
  },
  "ZZZ MJM": {
    "name": "ZZZ MJM",
    "city": "Manchester",
    "postcode": "M8 8LW"
  },
  "The Sabai Pavilion - Aberdeen": {
    "name": "The Sabai Pavilion - Aberdeen",
    "city": "Aberdeen",
    "postcode": "AB24 5EN"
  },
  "Kirkgate Centre": {
    "name": "Kirkgate Centre",
    "city": "Cockermouth",
    "postcode": "CA13 9PJ"
  },
  "Friends Meeting House": {
    "name": "Friends Meeting House",
    "city": "Manchester",
    "postcode": "M2 5NS"
  },
  "St Andrew Square Garden": {
    "name": "St Andrew Square Garden",
    "city": "Edinburgh",
    "postcode": "EH2 1AF"
  },
  "ZZZ_ELR (Santa 9)": {
    "name": "ZZZ_ELR (Santa 9)",
    "city": "Bury",
    "postcode": "BL9 0EY"
  },
  "Southport Jazz Festival": {
    "name": "Southport Jazz Festival",
    "city": "Merseyside",
    "postcode": "PR8 1RB"
  },
  "The Sabai Pavilion - Leeds": {
    "name": "The Sabai Pavilion - Leeds",
    "city": "Leeds",
    "postcode": "LS2 3AD"
  },
  "John Rylands Library": {
    "name": "John Rylands Library",
    "city": "Manchester",
    "postcode": "M3 3EH"
  },
  "St. Ann's Church (MJF)": {
    "name": "St. Ann's Church (MJF)",
    "city": "Manchester",
    "postcode": "M2 7LF"
  },
  "Lowry General Admission -  Compass Room": {
    "name": "Lowry General Admission -  Compass Room",
    "city": "Manchester",
    "postcode": "M50 3AZ"
  },
  "Charter Theatre - Preston Guild Hall": {
    "name": "Charter Theatre - Preston Guild Hall",
    "city": "Preston",
    "postcode": null
  },
  "Llangollen Railway (General Admission)": {
    "name": "Llangollen Railway (General Admission)",
    "city": "Llangollen",
    "postcode": "LL20 8SN"
  },
  "Axis Arts Centre": {
    "name": "Axis Arts Centre",
    "city": "MMU Campus, Crewe CW1 5DU",
    "postcode": "CW1 5DU"
  },
  "MHC - Whitworth Hall": {
    "name": "MHC - Whitworth Hall",
    "city": "Manchester",
    "postcode": "M13 9PP"
  },
  "Manchester Art Gallery": {
    "name": "Manchester Art Gallery",
    "city": "Manchester",
    "postcode": "M2 3JL"
  },
  "Manchester Cathedral": {
    "name": "Manchester Cathedral",
    "city": "Manchester",
    "postcode": "M3 1SX"
  },
  "Dukinfield Town Hall": {
    "name": "Dukinfield Town Hall",
    "city": "Dukinfield",
    "postcode": "SK16 4LA"
  },
  "The Deaf Institute": {
    "name": "The Deaf Institute",
    "city": "Manchester",
    "postcode": "M1 7HE"
  },
  "Victoria Station": {
    "name": "Victoria Station",
    "city": "Manchester",
    "postcode": "M3 1PB"
  },
  "Independent": {
    "name": "Independent",
    "city": "Sunderland",
    "postcode": "SR1 3HY"
  },
  "The Playhouse Theatre": {
    "name": "The Playhouse Theatre",
    "city": "Preston",
    "postcode": "PR1 2HB"
  },
  "Pavilion Theatre - Unreserved": {
    "name": "Pavilion Theatre - Unreserved",
    "city": "Manchester",
    "postcode": "M2 5DB"
  },
  "The Forum Theatre, Romiley (Normal)": {
    "name": "The Forum Theatre, Romiley (Normal)",
    "city": "Stockport",
    "postcode": "SK6 4EA"
  },
  "Stockport Garrick Studio": {
    "name": "Stockport Garrick Studio",
    "city": "Stockport",
    "postcode": "SK3 0EJ"
  },
  "MIF TEST 2015 GA": {
    "name": "MIF TEST 2015 GA",
    "city": "Manchester",
    "postcode": null
  },
  "East Lancashire Railway (8 Carriages - horizontal)": {
    "name": "East Lancashire Railway (8 Carriages - horizontal)",
    "city": "Bury",
    "postcode": "BL9 0EY"
  },
  "Chaplins Circus": {
    "name": "Chaplins Circus",
    "city": "National",
    "postcode": null
  },
  "Victoria Square - Festival Marquee (Tables v2)": {
    "name": "Victoria Square - Festival Marquee (Tables v2)",
    "city": "Bolton",
    "postcode": "BL1 1RZ"
  },
  "zzz_The Sabai Pavilion - Aberdeen": {
    "name": "zzz_The Sabai Pavilion - Aberdeen",
    "city": "Aberdeen",
    "postcode": "AB24 5EN"
  },
  "Gorilla": {
    "name": "Gorilla",
    "city": "Manchester",
    "postcode": "M1 5WW"
  },
  "Manchester Town Hall, Banqueting Room": {
    "name": "Manchester Town Hall, Banqueting Room",
    "city": "Manchester",
    "postcode": "M60 2LA"
  },
  "Centenary Building": {
    "name": "Centenary Building",
    "city": "Salford",
    "postcode": "M3 6EQ"
  },
  "Lowry Lunchbox": {
    "name": "Lowry Lunchbox",
    "city": "Manchester",
    "postcode": null
  },
  "zzTheatre Big Top, Fountainbridge, (Venue 189)": {
    "name": "zzTheatre Big Top, Fountainbridge, (Venue 189)",
    "city": "Edinburgh",
    "postcode": "EH3 9RX"
  },
  "Bo’ness & Kinneil Railway, Bo’ness (7 carriage)": {
    "name": "Bo’ness & Kinneil Railway, Bo’ness (7 carriage)",
    "city": "Bo’ness",
    "postcode": "EH51 9AQ"
  },
  "The Shakespeare Inn": {
    "name": "The Shakespeare Inn",
    "city": "Manchester",
    "postcode": "M2 2AA"
  },
  "Lowry Academy Adult Gallery Activity 200": {
    "name": "Lowry Academy Adult Gallery Activity 200",
    "city": "Manchester",
    "postcode": null
  },
  "South Devon Railway (General Admission)": {
    "name": "South Devon Railway (General Admission)",
    "city": "Devon",
    "postcode": "TQ11 0DZ"
  },
  "Zippos Circus Horsepower (North West)": {
    "name": "Zippos Circus Horsepower (North West)",
    "city": "National",
    "postcode": null
  },
  "Waterside Arts Centre (General Admission)": {
    "name": "Waterside Arts Centre (General Admission)",
    "city": "Sale",
    "postcode": "M33 7ZF"
  },
  "The Sabai Pavilion - Dundee": {
    "name": "The Sabai Pavilion - Dundee",
    "city": "Dundee",
    "postcode": "DD4 6NL"
  },
  "Bridport Arts Centre (Unreserved Standing)": {
    "name": "Bridport Arts Centre (Unreserved Standing)",
    "city": "Bridport",
    "postcode": "DT6 3NR"
  },
  "Mayfield Manchester - Arches": {
    "name": "Mayfield Manchester - Arches",
    "city": "Manchester",
    "postcode": "M12 6HR"
  },
  "Cinema Truck": {
    "name": "Cinema Truck",
    "city": "Salford",
    "postcode": "M50 3AZ"
  },
  "East Lancashire Railway (4 Carriages)": {
    "name": "East Lancashire Railway (4 Carriages)",
    "city": "Bury",
    "postcode": "BL9 0EY"
  },
  "Chetham's School of Music": {
    "name": "Chetham's School of Music",
    "city": "Manchester",
    "postcode": "M3 1SB"
  },
  "Sabai Pavilion (small) - Edinburgh": {
    "name": "Sabai Pavilion (small) - Edinburgh",
    "city": "Edinburgh",
    "postcode": null
  },
  "The Rose Club": {
    "name": "The Rose Club",
    "city": "Wigan",
    "postcode": "WN2 3EU"
  },
  "Sub 101": {
    "name": "Sub 101",
    "city": "Manchester",
    "postcode": "M1 6DD"
  },
  "Joshua Brooks": {
    "name": "Joshua Brooks",
    "city": "Manchester",
    "postcode": "M1 6NG"
  },
  "53two": {
    "name": "53two",
    "city": "Manchester",
    "postcode": "M1 5LN"
  },
  "The Edge": {
    "name": "The Edge",
    "city": "Wigan",
    "postcode": "WN3 5AB"
  },
  "MIF City Centre Venue A": {
    "name": "MIF City Centre Venue A",
    "city": "Manchester",
    "postcode": null
  },
  "The Sabai Pavilion - Nottingham 2020": {
    "name": "The Sabai Pavilion - Nottingham 2020",
    "city": "Nottingham",
    "postcode": "NG1 2DT"
  },
  "Lowry Adult Gallery Activity": {
    "name": "Lowry Adult Gallery Activity",
    "city": "Manchester",
    "postcode": "M50 3AZ"
  },
  "Avon Valley Railway (AB Full, C Partial)": {
    "name": "Avon Valley Railway (AB Full, C Partial)",
    "city": "Bristol",
    "postcode": "BS30 6HD"
  },
  "Lyric Theatre 200": {
    "name": "Lyric Theatre 200",
    "city": "Manchester",
    "postcode": null
  },
  "Albion Church": {
    "name": "Albion Church",
    "city": "Ashton-under-Lyne",
    "postcode": "OL6 6QQ"
  },
  "St. Ann's Church": {
    "name": "St. Ann's Church",
    "city": "Manchester",
    "postcode": "M2 7LF"
  },
  "Manchester Jewish Museum (General Admission)": {
    "name": "Manchester Jewish Museum (General Admission)",
    "city": "Manchester",
    "postcode": "M8 8LW"
  },
  "The Sabai Pavilion - Dundee 2017": {
    "name": "The Sabai Pavilion - Dundee 2017",
    "city": "Dundee",
    "postcode": "DD4 6NL"
  },
  "George Lawton Hall": {
    "name": "George Lawton Hall",
    "city": "Oldham",
    "postcode": "OL5 0HR"
  },
  "Mayfield - Standing": {
    "name": "Mayfield - Standing",
    "city": "Manchester",
    "postcode": "M1 2PZ"
  },
  "NEW Zippos Circus (North East)": {
    "name": "NEW Zippos Circus (North East)",
    "city": "North East",
    "postcode": null
  },
  "Zippos Circus Phoenix (Scotland)": {
    "name": "Zippos Circus Phoenix (Scotland)",
    "city": "National",
    "postcode": null
  },
  "Lowry Quays (Thrust)": {
    "name": "Lowry Quays (Thrust)",
    "city": "The Lowry",
    "postcode": "M50 3AZ"
  },
  "Circus Big Top - Glasgow": {
    "name": "Circus Big Top - Glasgow",
    "city": "Glasgow",
    "postcode": "G51 4BN"
  },
  "The Sabai Pavilion - Manchester": {
    "name": "The Sabai Pavilion - Manchester",
    "city": "Manchester",
    "postcode": "M40 8AD"
  },
  "Albert Hall - Standing": {
    "name": "Albert Hall - Standing",
    "city": "Manchester",
    "postcode": "M2 5RQ"
  },
  "Albert Memorial": {
    "name": "Albert Memorial",
    "city": "Manchester",
    "postcode": "M2 5DB"
  },
  "Campfield Market Hall - Standing": {
    "name": "Campfield Market Hall - Standing",
    "city": "Manchester",
    "postcode": "M3 4FH"
  },
  "Taurus Bar": {
    "name": "Taurus Bar",
    "city": "Manchester",
    "postcode": "M1 3HE"
  },
  "Thwaites Festival Pavilion": {
    "name": "Thwaites Festival Pavilion",
    "city": "Manchester",
    "postcode": null
  },
  "MHC - Cosmo Rodewald Concert Hall": {
    "name": "MHC - Cosmo Rodewald Concert Hall",
    "city": "Manchester",
    "postcode": "M13 9PL"
  },
  "MIF City Centre Venue B": {
    "name": "MIF City Centre Venue B",
    "city": "Manchester",
    "postcode": null
  },
  "General Admission 300": {
    "name": "General Admission 300",
    "city": "Manchester",
    "postcode": null
  },
  "Zippos Circus Horsepower (Wales)": {
    "name": "Zippos Circus Horsepower (Wales)",
    "city": "National",
    "postcode": null
  },
  "The Sabai Pavilion - Cardiff": {
    "name": "The Sabai Pavilion - Cardiff",
    "city": "Cardiff",
    "postcode": "CF10 5AN"
  },
  "Zippos Circus (West Midlands)": {
    "name": "Zippos Circus (West Midlands)",
    "city": "National",
    "postcode": null
  },
  "Irwell House": {
    "name": "Irwell House",
    "city": "Salford",
    "postcode": "M3 7LE"
  },
  "Worsley Park Marriott Hotel & Country Club (WOR)": {
    "name": "Worsley Park Marriott Hotel & Country Club (WOR)",
    "city": "Manchester",
    "postcode": "M28 2QT"
  },
  "Victoria Square - Festival Marquee (Tables)": {
    "name": "Victoria Square - Festival Marquee (Tables)",
    "city": "Bolton",
    "postcode": "BL1 1RZ"
  },
  "The Tunnel": {
    "name": "The Tunnel",
    "city": "Manchester",
    "postcode": "M3 4LQ"
  },
  "Cruz 101": {
    "name": "Cruz 101",
    "city": "Manchester",
    "postcode": "M1 6DD"
  },
  "Festival Circus (Midlands)": {
    "name": "Festival Circus (Midlands)",
    "city": "National",
    "postcode": null
  },
  "Bolton Winter Wonderland Wheel": {
    "name": "Bolton Winter Wonderland Wheel",
    "city": "Bolton",
    "postcode": "BL1 1SA"
  },
  "The Sabai Pavilion - Glasgow": {
    "name": "The Sabai Pavilion - Glasgow",
    "city": "Glasgow",
    "postcode": "G3 8RS"
  },
  "Lancaster Suite, Bolton Albert Halls": {
    "name": "Lancaster Suite, Bolton Albert Halls",
    "city": "Bolton",
    "postcode": "BL1 1RU"
  },
  "Oldham Coliseum Theatre @ Alexandra Park": {
    "name": "Oldham Coliseum Theatre @ Alexandra Park",
    "city": "Oldham",
    "postcode": "OL8 2BN"
  },
  "The Gay Village": {
    "name": "The Gay Village",
    "city": "Manchester",
    "postcode": null
  },
  "Jersey Opera House": {
    "name": "Jersey Opera House",
    "city": "Jersey",
    "postcode": "JE2 3QR"
  },
  "East Lancashire Railway (Metrolink Add Ons)": {
    "name": "East Lancashire Railway (Metrolink Add Ons)",
    "city": "Bury",
    "postcode": "BL9 0EY"
  },
  "Syon Park": {
    "name": "Syon Park",
    "city": "Brentford",
    "postcode": "TW7 6AZ"
  },
  "The Sabai Pavilion - Aberdeen 2020": {
    "name": "The Sabai Pavilion - Aberdeen 2020",
    "city": "Aberdeen",
    "postcode": "AB24 5EN"
  },
  "The Meadows, Edinburgh": {
    "name": "The Meadows, Edinburgh",
    "city": "Edinburgh",
    "postcode": null
  },
  "War Memorial, St. Ann's Square": {
    "name": "War Memorial, St. Ann's Square",
    "city": "Manchester",
    "postcode": "M2 7EF"
  },
  "National Cycling Centre (2012) GA": {
    "name": "National Cycling Centre (2012) GA",
    "city": "Manchester",
    "postcode": "M11 4DQ"
  },
  "Portico Library": {
    "name": "Portico Library",
    "city": "Manchester",
    "postcode": "M2 3FF"
  },
  "Music Boxes": {
    "name": "Music Boxes",
    "city": "Manchester",
    "postcode": null
  },
  "Lancaster Castle": {
    "name": "Lancaster Castle",
    "city": "Lancaster",
    "postcode": "LA1 1YJ"
  },
  "The Sabai Pavilion - Manchester 2017": {
    "name": "The Sabai Pavilion - Manchester 2017",
    "city": "Manchester",
    "postcode": "M15 4NP"
  },
  "Curve, Leicester": {
    "name": "Curve, Leicester",
    "city": "Leicester",
    "postcode": "LE1 1SB"
  },
  "Milton Country Park, Cambridge": {
    "name": "Milton Country Park, Cambridge",
    "city": "Cambridge",
    "postcode": "CB24 6AZ"
  },
  "Jerwood Centre - Wordsworth Trust": {
    "name": "Jerwood Centre - Wordsworth Trust",
    "city": "Cumbria",
    "postcode": "LA22 9SH"
  },
  "Warwick Castle": {
    "name": "Warwick Castle",
    "city": "Warwick",
    "postcode": "CV34 4QU"
  },
  "Geoffrey Manton Building, MMU": {
    "name": "Geoffrey Manton Building, MMU",
    "city": "Manchester",
    "postcode": "M15 6LL"
  },
  "The Sabai Pavilion - Derby 2020": {
    "name": "The Sabai Pavilion - Derby 2020",
    "city": "Derby",
    "postcode": "DE1 3AH"
  },
  "Prince's Park": {
    "name": "Prince's Park",
    "city": "Manchester",
    "postcode": "M44 6BR"
  },
  "Yard Theatre, Hulme": {
    "name": "Yard Theatre, Hulme",
    "city": "Manchester",
    "postcode": "M15 5RF"
  },
  "RNCM Concert Hall Unreserved": {
    "name": "RNCM Concert Hall Unreserved",
    "city": "Manchester",
    "postcode": "M13 9RD"
  },
  "Manchester Central Mosque": {
    "name": "Manchester Central Mosque",
    "city": "Manchester",
    "postcode": "M14 5RU"
  },
  "Barton Arcade, Deansgate": {
    "name": "Barton Arcade, Deansgate",
    "city": "Manchester",
    "postcode": "M3 2BW"
  },
  "The Sabai Pavilion - Newcastle Under Lyme 2020": {
    "name": "The Sabai Pavilion - Newcastle Under Lyme 2020",
    "city": "Ryecroft",
    "postcode": "ST5 2AF"
  },
  "Beaumaris Leisure Centre (Unreserved)": {
    "name": "Beaumaris Leisure Centre (Unreserved)",
    "city": "Beaumaris",
    "postcode": "LL58 8AL"
  },
  "AMEX Stadium": {
    "name": "AMEX Stadium",
    "city": "Brighton and Hove",
    "postcode": "BN1 9BL"
  },
  "Avon Valley Railway (Paddington Layout)": {
    "name": "Avon Valley Railway (Paddington Layout)",
    "city": "Bristol",
    "postcode": "BS30 6HD"
  },
  "Anfield": {
    "name": "Anfield",
    "city": "Liverpool",
    "postcode": "L4 0TH"
  },
  "Circus of the Orient - Edinburgh": {
    "name": "Circus of the Orient - Edinburgh",
    "city": "Edinburgh",
    "postcode": null
  },
  "Sabai Pavilion (COTB)": {
    "name": "Sabai Pavilion (COTB)",
    "city": "National",
    "postcode": null
  },
  "ZZZ_ELR (Santa 6 US)": {
    "name": "ZZZ_ELR (Santa 6 US)",
    "city": "Bury",
    "postcode": "BL9 0EY"
  },
  "Manchester Museum": {
    "name": "Manchester Museum",
    "city": "Manchester",
    "postcode": "M13 9PL"
  },
  "Sabai Pavilion - Edinburgh": {
    "name": "Sabai Pavilion - Edinburgh",
    "city": "Edinburgh",
    "postcode": null
  },
  "Skipton Town Hall": {
    "name": "Skipton Town Hall",
    "city": "Skipton",
    "postcode": "BD23 1AH"
  },
  "Adsett Farm": {
    "name": "Adsett Farm",
    "city": "Westbury",
    "postcode": "GL14 1PQ"
  },
  "O2 Ritz": {
    "name": "O2 Ritz",
    "city": "Manchester",
    "postcode": "M1 5NQ"
  },
  "People's History Museum": {
    "name": "People's History Museum",
    "city": "Manchester",
    "postcode": "M3 3ER"
  },
  "The Sabai Pavilion - Glasgow 2019": {
    "name": "The Sabai Pavilion - Glasgow 2019",
    "city": "Glasgow",
    "postcode": "G3 8RS"
  },
  "The Paragon Theatre": {
    "name": "The Paragon Theatre",
    "city": "Manchester",
    "postcode": "M25 1JZ"
  },
  "Arboria Luminarium": {
    "name": "Arboria Luminarium",
    "city": "Salford",
    "postcode": "M50 2EQ"
  },
  "ZZZ_The Grange Theatre": {
    "name": "ZZZ_The Grange Theatre",
    "city": "North West",
    "postcode": "CW8 1LU"
  },
  "Theatre Big Top": {
    "name": "Theatre Big Top",
    "city": "Trafford",
    "postcode": "M17 8AA"
  },
  "New Century Hall - Standing": {
    "name": "New Century Hall - Standing",
    "city": "Manchester",
    "postcode": "M60 4ES"
  },
  "Temple Newsam": {
    "name": "Temple Newsam",
    "city": "Leeds",
    "postcode": "LS15 0AE"
  },
  "MHC - Manchester Grammar School": {
    "name": "MHC - Manchester Grammar School",
    "city": "Manchester",
    "postcode": "M13 0XT"
  },
  "Salford Sports Village": {
    "name": "Salford Sports Village",
    "city": "Salford",
    "postcode": "M7 3NQ"
  },
  "Outside St. Ann's Church": {
    "name": "Outside St. Ann's Church",
    "city": "Manchester",
    "postcode": "M2 7LF"
  },
  "MIF Macbeth": {
    "name": "MIF Macbeth",
    "city": "Manchester",
    "postcode": null
  },
  "Stage 1, Old Granada Studios - General Admission": {
    "name": "Stage 1, Old Granada Studios - General Admission",
    "city": "Manchester",
    "postcode": "M3 4FP"
  },
  "Maxwell Hall, The University of Salford": {
    "name": "Maxwell Hall, The University of Salford",
    "city": "Salford",
    "postcode": "M5 4WT"
  },
  "Museum of Science and Industry": {
    "name": "Museum of Science and Industry",
    "city": "Manchester",
    "postcode": "M3 4FP"
  },
  "The Edge (formally The Pier Centre)": {
    "name": "The Edge (formally The Pier Centre)",
    "city": "Wigan",
    "postcode": "WN3 5AB"
  },
  "The Sabai Pavilion - Bristol 2018": {
    "name": "The Sabai Pavilion - Bristol 2018",
    "city": "Bristol",
    "postcode": "BS8 2XU"
  },
  "Circus Big Top - Leeds": {
    "name": "Circus Big Top - Leeds",
    "city": "Leeds",
    "postcode": "LS17 9LG"
  },
  "The Edge Theatre and Arts Centre": {
    "name": "The Edge Theatre and Arts Centre",
    "city": "Manchester",
    "postcode": "M21 9JG"
  },
  "Sabai Pavilion - La Bordello Boheme": {
    "name": "Sabai Pavilion - La Bordello Boheme",
    "city": "National",
    "postcode": null
  },
  "The Sabai Pavilion - Bristol 2020": {
    "name": "The Sabai Pavilion - Bristol 2020",
    "city": "Bristol",
    "postcode": "BS1 3XE"
  },
  "Circus Big Top - Birkenhead": {
    "name": "Circus Big Top - Birkenhead",
    "city": "Birkenhead",
    "postcode": "CH41 8AU"
  },
  "Radcliffe Civic Suite": {
    "name": "Radcliffe Civic Suite",
    "city": "Manchester",
    "postcode": "M26 2UH"
  },
  "The Forum Theatre, Romiley - Unreserved Cabaret": {
    "name": "The Forum Theatre, Romiley - Unreserved Cabaret",
    "city": "Stockport",
    "postcode": "SK6 4EA"
  },
  "Celebration Hall, Robin Park Sports Centre": {
    "name": "Celebration Hall, Robin Park Sports Centre",
    "city": "Wigan",
    "postcode": "WN5 0UL"
  },
  "National Football Museum": {
    "name": "National Football Museum",
    "city": "Manchester",
    "postcode": "M4 3BG"
  },
  "Rydal Mount - Wordsworth Trust": {
    "name": "Rydal Mount - Wordsworth Trust",
    "city": "Cumbria",
    "postcode": "LA22 9SH"
  },
  "NQ Jazz at The Whiskey Jar": {
    "name": "NQ Jazz at The Whiskey Jar",
    "city": "Manchester",
    "postcode": "M1 2FF"
  },
  "Lowry Training (GA - 50 capacity)": {
    "name": "Lowry Training (GA - 50 capacity)",
    "city": "Salford",
    "postcode": "M50 3AZ"
  },
  "Zippos Circus Phoenix (Yorkshire)": {
    "name": "Zippos Circus Phoenix (Yorkshire)",
    "city": "National",
    "postcode": null
  },
  "Instituto Cervantes": {
    "name": "Instituto Cervantes",
    "city": "Manchester",
    "postcode": "M3 4FN"
  },
  "Royal Exchange Studio": {
    "name": "Royal Exchange Studio",
    "city": "Manchester",
    "postcode": "M2 7DH"
  },
  "Vaudeville Theatre": {
    "name": "Vaudeville Theatre",
    "city": "London",
    "postcode": "WC2R 0NH"
  },
  "RNCM Concert Hall": {
    "name": "RNCM Concert Hall",
    "city": "Manchester",
    "postcode": "M13 9RD"
  },
  "Gandeys Circus Big Top - Dudley": {
    "name": "Gandeys Circus Big Top - Dudley",
    "city": "National",
    "postcode": null
  },
  "Culterham Hall - Wordsworth Trust": {
    "name": "Culterham Hall - Wordsworth Trust",
    "city": "Cumbria",
    "postcode": "CA15 6QT"
  },
  "Lowry Development": {
    "name": "Lowry Development",
    "city": "Manchester",
    "postcode": "M50 3AZ"
  },
  "Cafe - Wordsworth Trust": {
    "name": "Cafe - Wordsworth Trust",
    "city": "Cumbria",
    "postcode": "LA22 9SH"
  },
  "Zippos Circus (Yorkshire)": {
    "name": "Zippos Circus (Yorkshire)",
    "city": "National",
    "postcode": null
  },
  "Mayfield": {
    "name": "Mayfield",
    "city": "Manchester",
    "postcode": "M1 2PZ"
  },
  "Lowri Beck Celebration Hall": {
    "name": "Lowri Beck Celebration Hall",
    "city": "Wigan",
    "postcode": "WN5 0UL"
  },
  "Droylsden Concord Suite": {
    "name": "Droylsden Concord Suite",
    "city": "Droylsden",
    "postcode": "M43 6SF"
  },
  "Bolton Library Theatre 2020": {
    "name": "Bolton Library Theatre 2020",
    "city": "Bolton",
    "postcode": null
  },
  "Manchester Jewish Museum (Reserved revised)": {
    "name": "Manchester Jewish Museum (Reserved revised)",
    "city": "Manchester",
    "postcode": "M8 8LW"
  },
  "Imperial War Museum North": {
    "name": "Imperial War Museum North",
    "city": "Manchester",
    "postcode": "M17 1TZ"
  },
  "Milk and Honey Cafe": {
    "name": "Milk and Honey Cafe",
    "city": "Manchester",
    "postcode": null
  },
  "Abbots Ripton Hall": {
    "name": "Abbots Ripton Hall",
    "city": "Huntingdon",
    "postcode": "PE28 2PQ"
  },
  "Ambleside Library - Wordsworth Trust": {
    "name": "Ambleside Library - Wordsworth Trust",
    "city": "Cumbria",
    "postcode": "LA12 0BT"
  },
  "NCP Bridgewater Hall Car Park": {
    "name": "NCP Bridgewater Hall Car Park",
    "city": "Manchester",
    "postcode": "M15 4PS"
  },
  "Satan's Hollow": {
    "name": "Satan's Hollow",
    "city": "Manchester",
    "postcode": "M1 6DD"
  },
  "Gurdwara Sri Guru Harkrishan Sahib Ji": {
    "name": "Gurdwara Sri Guru Harkrishan Sahib Ji",
    "city": "Manchester",
    "postcode": "M3 1FE"
  },
  "The Sabai Pavilion - Leeds 2017": {
    "name": "The Sabai Pavilion - Leeds 2017",
    "city": "Leeds",
    "postcode": "LS2 3AD"
  },
  "The Shakespeare": {
    "name": "The Shakespeare",
    "city": "Sheffield",
    "postcode": "S3 8UB"
  },
  "The Hippodrome Casino (THC)": {
    "name": "The Hippodrome Casino (THC)",
    "city": "London",
    "postcode": "WC2H 7JH"
  },
  "Lancaster Grand Theatre": {
    "name": "Lancaster Grand Theatre",
    "city": "Lancaster",
    "postcode": "LA1 1NL"
  },
  "Fab Café": {
    "name": "Fab Café",
    "city": "Manchester",
    "postcode": "M1 6DN"
  },
  "Slung Low's HUB - 250 Capacity": {
    "name": "Slung Low's HUB - 250 Capacity",
    "city": "Leeds",
    "postcode": "LS11 9QX"
  },
  "Stockport Garrick Theatre (Stage Seating)": {
    "name": "Stockport Garrick Theatre (Stage Seating)",
    "city": "Stockport",
    "postcode": "SK3 0EJ"
  },
  "Longsight Library and Learning Centre": {
    "name": "Longsight Library and Learning Centre",
    "city": "Manchester",
    "postcode": "M60 2DS"
  },
  "1830 Warehouse, Museum of Science & Industry": {
    "name": "1830 Warehouse, Museum of Science & Industry",
    "city": "Manchester",
    "postcode": "M3 4PU"
  },
  "Pavilion Theatre - Seated": {
    "name": "Pavilion Theatre - Seated",
    "city": "Manchester",
    "postcode": "M2 5PE"
  },
  "University Place": {
    "name": "University Place",
    "city": "Manchester",
    "postcode": "M13 9PL"
  },
  "The Sabai Pavilion - Liverpool 2020": {
    "name": "The Sabai Pavilion - Liverpool 2020",
    "city": "Liverpool",
    "postcode": "L3 1DP"
  },
  "The Bowdon Rooms (General Admission)": {
    "name": "The Bowdon Rooms (General Admission)",
    "city": "Altrincham",
    "postcode": "WA14 2TQ"
  },
  "RNCM Concert Hall - with Balcony": {
    "name": "RNCM Concert Hall - with Balcony",
    "city": "Manchester",
    "postcode": "M13 9RD"
  },
  "National Cycling Centre": {
    "name": "National Cycling Centre",
    "city": "Manchester",
    "postcode": "M11 4DQ"
  },
  "NEW Zippos Circus (Yorkshire)": {
    "name": "NEW Zippos Circus (Yorkshire)",
    "city": "Yorkshire",
    "postcode": null
  },
  "Holy Trinity Church": {
    "name": "Holy Trinity Church",
    "city": "Skipton",
    "postcode": "BD23 1NJ"
  },
  "Albert Hall - Seated": {
    "name": "Albert Hall - Seated",
    "city": "Manchester",
    "postcode": "M2 5RQ"
  },
  "Chorlton Library": {
    "name": "Chorlton Library",
    "city": "Manchester",
    "postcode": "M21 9PN"
  },
  "Dove Cottage - Wordsworth Trust": {
    "name": "Dove Cottage - Wordsworth Trust",
    "city": "Cumbria",
    "postcode": "LA22 9SH"
  },
  "East Lancashire Railway (10 Carriage)": {
    "name": "East Lancashire Railway (10 Carriage)",
    "city": "Bury",
    "postcode": "BL9 0EY"
  },
  "Clissold Park": {
    "name": "Clissold Park",
    "city": "London",
    "postcode": "N16 9HJ"
  },
  "Event City - Circus": {
    "name": "Event City - Circus",
    "city": "Manchester",
    "postcode": "M41 7TB"
  },
  "AK Test 2015": {
    "name": "AK Test 2015",
    "city": "Manchester",
    "postcode": null
  },
  "Centenary Building,": {
    "name": "Centenary Building,",
    "city": "Manchester",
    "postcode": "M3 6EQ"
  },
  "The Whitworth": {
    "name": "The Whitworth",
    "city": "Manchester",
    "postcode": "M15 6ER"
  },
  "Albert Square": {
    "name": "Albert Square",
    "city": "Manchester",
    "postcode": null
  },
  "Z-Arts": {
    "name": "Z-Arts",
    "city": "Manchester",
    "postcode": "M15 5ZA"
  },
  "Blackpool Football Club": {
    "name": "Blackpool Football Club",
    "city": "Blackpool",
    "postcode": "FY1 6JJ"
  },
  "Waterside Arts Centre (Standing)": {
    "name": "Waterside Arts Centre (Standing)",
    "city": "Sale",
    "postcode": "M33 7ZF"
  },
  "Albert Hall - Unreserved": {
    "name": "Albert Hall - Unreserved",
    "city": "Manchester",
    "postcode": "M2 5QR"
  },
  "Ashton-under-Lyne Metrolink": {
    "name": "Ashton-under-Lyne Metrolink",
    "city": "Oldham",
    "postcode": "OL6 6DL"
  },
  "Eastleigh Lakeside Steam Railway (GA)": {
    "name": "Eastleigh Lakeside Steam Railway (GA)",
    "city": "Eastleigh",
    "postcode": "SO50 5PE"
  },
  "Corn Exchange - Atrium": {
    "name": "Corn Exchange - Atrium",
    "city": "Manchester",
    "postcode": "M4 3TR"
  },
  "Z - The Sabai Pavilion - Brighton - GA": {
    "name": "Z - The Sabai Pavilion - Brighton - GA",
    "city": "Brighton and Hove",
    "postcode": "BN1 1UG"
  },
  "Lowry Plaza": {
    "name": "Lowry Plaza",
    "city": "Manchester",
    "postcode": "M50 3AZ"
  },
  "Piccadilly Gardens": {
    "name": "Piccadilly Gardens",
    "city": "Manchester",
    "postcode": null
  },
  "The Holy Name Church": {
    "name": "The Holy Name Church",
    "city": "Manchester",
    "postcode": "M13 9PG"
  },
  "Bo’ness & Kinneil Railway, Bo’ness (8 Carriages)": {
    "name": "Bo’ness & Kinneil Railway, Bo’ness (8 Carriages)",
    "city": "Bo’ness",
    "postcode": "EH51 9AQ"
  },
  "Bolton Albert Halls Theatre - Balcony/Unres Stand": {
    "name": "Bolton Albert Halls Theatre - Balcony/Unres Stand",
    "city": "Bolton",
    "postcode": "BL1 1RU"
  },
  "STUN Studio": {
    "name": "STUN Studio",
    "city": "Manchester",
    "postcode": "M15 5ZA"
  },
  "Spa Valley Railway (6 Carriages)": {
    "name": "Spa Valley Railway (6 Carriages)",
    "city": "Tunbridge Wells",
    "postcode": "TN2 5QY"
  },
  "Gandeys General Admission 7.99 Events": {
    "name": "Gandeys General Admission 7.99 Events",
    "city": "National",
    "postcode": null
  },
  "Sabai Pavilion Brighton": {
    "name": "Sabai Pavilion Brighton",
    "city": "Brighton and Hove",
    "postcode": "BN1 1UG"
  },
  "Manchester Academy": {
    "name": "Manchester Academy",
    "city": "Manchester",
    "postcode": "M13 9PR"
  },
  "Shrewsbury School": {
    "name": "Shrewsbury School",
    "city": "Shrewsbury",
    "postcode": "SY3 7AP"
  },
  "Victoria Square - Festival Marquee (GA)": {
    "name": "Victoria Square - Festival Marquee (GA)",
    "city": "Bolton",
    "postcode": "BL1 1RZ"
  },
  "Bolton Central Library Lecture Theatre - GA": {
    "name": "Bolton Central Library Lecture Theatre - GA",
    "city": "Bolton",
    "postcode": "BL1 1SE"
  },
  "Lowry Lottery": {
    "name": "Lowry Lottery",
    "city": "The Lowry",
    "postcode": null
  },
  "Bolton Castle": {
    "name": "Bolton Castle",
    "city": "Leyburn",
    "postcode": "DL8 4ET"
  },
  "Martin Harris Centre": {
    "name": "Martin Harris Centre",
    "city": "Manchester",
    "postcode": "M13 9PL"
  },
  "ZZZ_ELR (Santa 6)": {
    "name": "ZZZ_ELR (Santa 6)",
    "city": "Bury",
    "postcode": "BL9 0EY"
  },
  "Preston Guild Hall - Charter Theatre": {
    "name": "Preston Guild Hall - Charter Theatre",
    "city": "Preston",
    "postcode": "PR1 1HT"
  },
  "Houghton Mill": {
    "name": "Houghton Mill",
    "city": "Cambridgeshire",
    "postcode": "PE28 2AZ"
  },
  "Bolton Albert Halls - In The Round": {
    "name": "Bolton Albert Halls - In The Round",
    "city": "Bolton",
    "postcode": "BL1 1RU"
  },
  "The Sabai Pavilion - Dundee 2020": {
    "name": "The Sabai Pavilion - Dundee 2020",
    "city": "Dundee",
    "postcode": "DD4 6NL"
  },
  "Marine Hall": {
    "name": "Marine Hall",
    "city": "Blackpool",
    "postcode": "FY7 6HF"
  },
  "Day Out With Thomas - Ravenglass & Eskdale": {
    "name": "Day Out With Thomas - Ravenglass & Eskdale",
    "city": "Cumbria",
    "postcode": null
  },
  "greenroom": {
    "name": "greenroom",
    "city": "Manchester",
    "postcode": "M1 5WW"
  },
  "Kent & East Sussex Railway (4 Carriages)": {
    "name": "Kent & East Sussex Railway (4 Carriages)",
    "city": "Kent",
    "postcode": "TN30 6HE"
  },
  "Keats House, Hampstead": {
    "name": "Keats House, Hampstead",
    "city": "London",
    "postcode": "NW3 2RR"
  },
  "Buckinghamshire Railway Centre (General Admission)": {
    "name": "Buckinghamshire Railway Centre (General Admission)",
    "city": "Aylesbury",
    "postcode": "HP22 4BY"
  },
  "Three Minute Theatre": {
    "name": "Three Minute Theatre",
    "city": "Manchester",
    "postcode": "M1 1JG"
  },
  "Abode Hotel": {
    "name": "Abode Hotel",
    "city": "Manchester",
    "postcode": "M1 2DB"
  },
  "ZZZ_Jodrell Bank": {
    "name": "ZZZ_Jodrell Bank",
    "city": "Macclesfield",
    "postcode": "SK11 9DW"
  },
  "Manchester Town Hall (Unreserved Seating)": {
    "name": "Manchester Town Hall (Unreserved Seating)",
    "city": "Manchester",
    "postcode": "M60 2LA"
  },
  "The Sabai Pavilion - Belfast": {
    "name": "The Sabai Pavilion - Belfast",
    "city": "Belfast",
    "postcode": "BT1 3FG"
  },
  "Delamere Forest": {
    "name": "Delamere Forest",
    "city": "Northwich",
    "postcode": "CW8 2JD"
  },
  "Zippos Circus Horsepower (West Midlands)": {
    "name": "Zippos Circus Horsepower (West Midlands)",
    "city": "National",
    "postcode": null
  },
  "Hyde Festival Theatre": {
    "name": "Hyde Festival Theatre",
    "city": "Hyde",
    "postcode": "SK14 1AB"
  },
  "The Monastery Manchester": {
    "name": "The Monastery Manchester",
    "city": "Manchester",
    "postcode": null
  },
  "Ashton Town Hall": {
    "name": "Ashton Town Hall",
    "city": "Ashton-under-Lyne",
    "postcode": "OL6 6DL"
  },
  "Trafford Ticketing Demo": {
    "name": "Trafford Ticketing Demo",
    "city": "Manchester",
    "postcode": null
  },
  "TAKE A SEAT - Lyric": {
    "name": "TAKE A SEAT - Lyric",
    "city": "Salford",
    "postcode": "M50 3AZ"
  },
  "Midland Hotel (Seated)": {
    "name": "Midland Hotel (Seated)",
    "city": "Manchester",
    "postcode": "M60 2DS"
  },
  "Malmaison, Piccadilly": {
    "name": "Malmaison, Piccadilly",
    "city": "Manchester",
    "postcode": "M1 1LZ"
  },
  "New Testament Church of God": {
    "name": "New Testament Church of God",
    "city": "Manchester",
    "postcode": "M16 7RN"
  },
  "Bury Town Hall (unreserved)": {
    "name": "Bury Town Hall (unreserved)",
    "city": "Bury",
    "postcode": "BL9 0SW"
  },
  "MIF13 Test Venue": {
    "name": "MIF13 Test Venue",
    "city": null,
    "postcode": "M1 5DZ"
  },
  "St. Mary's Church, Banbury": {
    "name": "St. Mary's Church, Banbury",
    "city": "Banbury",
    "postcode": "OX16 0AA"
  },
  "Lytham Green": {
    "name": "Lytham Green",
    "city": "Lytham St Annes",
    "postcode": "FY8 5LD"
  },
  "The Flare HUB": {
    "name": "The Flare HUB",
    "city": "Manchester",
    "postcode": "M1 5NH"
  },
  "Dean Forest Railway (General Admission)": {
    "name": "Dean Forest Railway (General Admission)",
    "city": "Gloucester",
    "postcode": "GL15 4ET"
  },
  "The Frog and Bucket Comedy Club": {
    "name": "The Frog and Bucket Comedy Club",
    "city": "Manchester",
    "postcode": "M4 1LJ"
  },
  "Harvey Nichols, Manchester": {
    "name": "Harvey Nichols, Manchester",
    "city": "Manchester",
    "postcode": "M1 1AD"
  },
  "Peter Barkworth Theatre": {
    "name": "Peter Barkworth Theatre",
    "city": "Stockport",
    "postcode": "SK1 3UQ"
  },
  "Teacup": {
    "name": "Teacup",
    "city": "Manchester",
    "postcode": "M4 1NA"
  },
  "East Lancashire Railway (Day Out With Thomas)": {
    "name": "East Lancashire Railway (Day Out With Thomas)",
    "city": "Bury",
    "postcode": "BL9 0EY"
  },
  "Gates Of Hell - The Entrance To The Old Parsonage": {
    "name": "Gates Of Hell - The Entrance To The Old Parsonage",
    "city": "Manchester",
    "postcode": "M20 2RN"
  },
  "Beach Ballroom": {
    "name": "Beach Ballroom",
    "city": "Scotland",
    "postcode": "AB24 5NR"
  },
  "Zippos Circus (North East)": {
    "name": "Zippos Circus (North East)",
    "city": "National",
    "postcode": null
  },
  "Starlight Suite, Beachcomber Holiday Resort": {
    "name": "Starlight Suite, Beachcomber Holiday Resort",
    "city": "Cleethorpes",
    "postcode": "DN36 4ET."
  },
  "Wyvern Suite, Midland Hotel": {
    "name": "Wyvern Suite, Midland Hotel",
    "city": "Manchester",
    "postcode": "M60 2DS"
  },
  "Low Four, Old Granada Studios": {
    "name": "Low Four, Old Granada Studios",
    "city": "Manchester",
    "postcode": "M3 4PR"
  },
  "Britannia Hotel": {
    "name": "Britannia Hotel",
    "city": "Manchester",
    "postcode": "M1 3LA"
  },
  "Orford Jubilee Park": {
    "name": "Orford Jubilee Park",
    "city": "Warrington",
    "postcode": "WA2 8HU"
  },
  "Albert Hall - General Admission": {
    "name": "Albert Hall - General Admission",
    "city": "Manchester",
    "postcode": "M2 5QR"
  },
  "Hawkey Hall": {
    "name": "Hawkey Hall",
    "city": "Woodford Green",
    "postcode": "IG8 0BG"
  },
  "Test Venue": {
    "name": "Test Venue",
    "city": "Manchester",
    "postcode": "TE1 5TZ"
  },
  "Pride - Dancehouse": {
    "name": "Pride - Dancehouse",
    "city": "Manchester",
    "postcode": "M1 5QA"
  },
  "Albert Dock, Liverpool": {
    "name": "Albert Dock, Liverpool",
    "city": "Liverpool",
    "postcode": "L3 4AD"
  },
  "2022nq General Admission": {
    "name": "2022nq General Admission",
    "city": "Manchester",
    "postcode": "M1 1EZ"
  },
  "St John's Church": {
    "name": "St John's Church",
    "city": "Manchester",
    "postcode": "M16 7GX"
  },
  "St. George's Church": {
    "name": "St. George's Church",
    "city": "London",
    "postcode": "W15 1FX"
  },
  "East Lancashire Railway (DOWT 2019)": {
    "name": "East Lancashire Railway (DOWT 2019)",
    "city": "Bury",
    "postcode": "BL9 0EY"
  },
  "Library Theatre, Sheffield": {
    "name": "Library Theatre, Sheffield",
    "city": "Sheffield",
    "postcode": "S1 1XZ"
  },
  "Cornerhouse": {
    "name": "Cornerhouse",
    "city": "Manchester",
    "postcode": "M1 5NH"
  },
  "The Bread Shed": {
    "name": "The Bread Shed",
    "city": "Manchester",
    "postcode": "M1 7HL"
  },
  "Concorde Conference Centre": {
    "name": "Concorde Conference Centre",
    "city": "Altrincham",
    "postcode": "WA15 8XQ"
  },
  "Little Bentley Hall": {
    "name": "Little Bentley Hall",
    "city": "Colchester",
    "postcode": "CO7 8SE"
  },
  "Kedlestone Park": {
    "name": "Kedlestone Park",
    "city": "Derby",
    "postcode": "DE22 5JQ"
  },
  "National Cycling Centre (2011 Plan)": {
    "name": "National Cycling Centre (2011 Plan)",
    "city": "Manchester",
    "postcode": "M11 4DQ"
  },
  "The Great Hall": {
    "name": "The Great Hall",
    "city": "Manchester",
    "postcode": "M60 2LA"
  },
  "Institute of Advanced Legal Studies": {
    "name": "Institute of Advanced Legal Studies",
    "city": "London",
    "postcode": "WC1B 5DR"
  },
  "Bolton Albert Halls - Cabaret": {
    "name": "Bolton Albert Halls - Cabaret",
    "city": "Bolton",
    "postcode": "BL1 1RU"
  },
  "Canal Street, Manchester": {
    "name": "Canal Street, Manchester",
    "city": "Manchester",
    "postcode": null
  },
  "Hotel Football": {
    "name": "Hotel Football",
    "city": "Manchester",
    "postcode": "M16 0SZ"
  },
  "Kedlestone Park (2012)": {
    "name": "Kedlestone Park (2012)",
    "city": "Derby",
    "postcode": "DE22 5JQ"
  },
  "Zippos Circus Horsepower (North East)": {
    "name": "Zippos Circus Horsepower (North East)",
    "city": "National",
    "postcode": null
  },
  "Bolton Albert Hall - General Admission": {
    "name": "Bolton Albert Hall - General Admission",
    "city": "Bolton",
    "postcode": "BL1 1RU"
  },
  "Radisson Edwardian Blu Hotel": {
    "name": "Radisson Edwardian Blu Hotel",
    "city": "Manchester",
    "postcode": "M2 5GP"
  },
  "The Lowry - Pier Eight": {
    "name": "The Lowry - Pier Eight",
    "city": "Salford",
    "postcode": "M50 3AZ"
  },
  "Greater Manchester Police Museum": {
    "name": "Greater Manchester Police Museum",
    "city": "Manchester",
    "postcode": "M1 1ET"
  },
  "Manchester Airport Concorde Hangar": {
    "name": "Manchester Airport Concorde Hangar",
    "city": "Manchester",
    "postcode": "WA15 8XQ"
  },
  "The Grafton Centre": {
    "name": "The Grafton Centre",
    "city": "Hyde",
    "postcode": "SK14 2AX"
  },
  "The Pankhurst Centre": {
    "name": "The Pankhurst Centre",
    "city": "Manchester",
    "postcode": "M13 9WP"
  },
  "The Brook Theatre": {
    "name": "The Brook Theatre",
    "city": "Soham",
    "postcode": "CB7 5AD"
  },
  "Mayfield Depot - TROS": {
    "name": "Mayfield Depot - TROS",
    "city": "Manchester",
    "postcode": "M1 2QF"
  },
  "Reading Minster": {
    "name": "Reading Minster",
    "city": "Reading",
    "postcode": "RG1 2LN"
  },
  "MHC - (General Admission)": {
    "name": "MHC - (General Admission)",
    "city": "Manchester",
    "postcode": "M13 9PL"
  },
  "Piccadilly Metrolink Station": {
    "name": "Piccadilly Metrolink Station",
    "city": "Manchester",
    "postcode": "M1 2PB"
  },
  "Castlefield Basin": {
    "name": "Castlefield Basin",
    "city": "Manchester",
    "postcode": null
  },
  "Cenotaph, St. Peter's Square": {
    "name": "Cenotaph, St. Peter's Square",
    "city": "Manchester",
    "postcode": "M2 5PD"
  },
  "Cleethorpes Coast Light Railway (GA)": {
    "name": "Cleethorpes Coast Light Railway (GA)",
    "city": "Cleethorpes",
    "postcode": "DN35 0AG"
  },
  "East Lancashire Railway (Flying Scotsman)": {
    "name": "East Lancashire Railway (Flying Scotsman)",
    "city": "Bury",
    "postcode": "BL9 0EY"
  },
  "Thornton Manor": {
    "name": "Thornton Manor",
    "city": "Wirral",
    "postcode": "CH63 1JB"
  },
  "Manchester Arena": {
    "name": "Manchester Arena",
    "city": "Manchester",
    "postcode": "M3 1AR"
  },
  "O2 Apollo Manchester (GA)": {
    "name": "O2 Apollo Manchester (GA)",
    "city": "Manchester",
    "postcode": "M12 6AP"
  },
  "Gawsworth Hall unreserved seated": {
    "name": "Gawsworth Hall unreserved seated",
    "city": "Macclesfield",
    "postcode": "SK11 9RN"
  },
  "New Wimbledon Theatre (NWT)": {
    "name": "New Wimbledon Theatre (NWT)",
    "city": "London",
    "postcode": "SW19 1QG"
  },
  "Lowry Academy Education Activity 300": {
    "name": "Lowry Academy Education Activity 300",
    "city": "Manchester",
    "postcode": null
  },
  "Lowry Academy Adult Theatre Activity 150": {
    "name": "Lowry Academy Adult Theatre Activity 150",
    "city": "Manchester",
    "postcode": null
  },
  "Tatton Park": {
    "name": "Tatton Park",
    "city": "Knutsford",
    "postcode": "WA16 6QN"
  },
  "The Forum Theatre, Romiley - Unreserved": {
    "name": "The Forum Theatre, Romiley - Unreserved",
    "city": "Stockport",
    "postcode": "SK6 4EA"
  },
  "Beaumaris Leisure Centre (Reserved)": {
    "name": "Beaumaris Leisure Centre (Reserved)",
    "city": "Beaumaris",
    "postcode": "LL58 8AL"
  },
  "Lowry Academy Family Activity 150": {
    "name": "Lowry Academy Family Activity 150",
    "city": "Manchester",
    "postcode": null
  },
  "ZZZ_ELR Test": {
    "name": "ZZZ_ELR Test",
    "city": "Bury",
    "postcode": "BL9 0EY"
  },
  "Trafford Suite, Midland Hotel": {
    "name": "Trafford Suite, Midland Hotel",
    "city": "Manchester",
    "postcode": "M60 2DS"
  },
  "Liverpool Sound City": {
    "name": "Liverpool Sound City",
    "city": "Liverpool",
    "postcode": "L1 4BX"
  },
  "ZZZ_ELR (Santa 9 US)": {
    "name": "ZZZ_ELR (Santa 9 US)",
    "city": "Bury",
    "postcode": "BL9 0EY"
  },
  "John Smith's Stadium": {
    "name": "John Smith's Stadium",
    "city": "Huddersfield",
    "postcode": "HD1"
  },
  "Millennium Square": {
    "name": "Millennium Square",
    "city": "Leeds",
    "postcode": "LS2 3AD"
  },
  "Ordsall Hall": {
    "name": "Ordsall Hall",
    "city": "Salford",
    "postcode": "M5 3AN"
  },
  "Hoghton Tower": {
    "name": "Hoghton Tower",
    "city": "Preston",
    "postcode": "PR5 0SH"
  },
  "Gloucestershire Warwickshire Railway (GA)": {
    "name": "Gloucestershire Warwickshire Railway (GA)",
    "city": "Gloucester",
    "postcode": "GL54 5DT"
  },
  "Phones 4u Arena (General Admission)": {
    "name": "Phones 4u Arena (General Admission)",
    "city": "Manchester",
    "postcode": "M3 1 AR"
  },
  "Emmetts Garden, Sevenoaks": {
    "name": "Emmetts Garden, Sevenoaks",
    "city": "Sevenoaks",
    "postcode": "TN14 6BA"
  },
  "Manchester Town Hall (Reserved)": {
    "name": "Manchester Town Hall (Reserved)",
    "city": "Manchester",
    "postcode": "M2 5DB"
  },
  "Turbine Hall": {
    "name": "Turbine Hall",
    "city": "Newcastle-upon-Tyne",
    "postcode": "NE1 2JQ"
  },
  "The Sabai Pavilion - Bristol": {
    "name": "The Sabai Pavilion - Bristol",
    "city": "Bristol",
    "postcode": "BS1 3XE"
  },
  "Glass House Arts Centre": {
    "name": "Glass House Arts Centre",
    "city": "Stourbridge",
    "postcode": "DY8 4HF"
  },
  "Great Hall, Queen Mary Univeristy of London": {
    "name": "Great Hall, Queen Mary Univeristy of London",
    "city": "London",
    "postcode": "E1 4NS"
  },
  "Shree Radha Krishna Mandir": {
    "name": "Shree Radha Krishna Mandir",
    "city": "Manchester",
    "postcode": "M20 4QB"
  },
  "Sir Chris Hoy Velodrome, Glasgow": {
    "name": "Sir Chris Hoy Velodrome, Glasgow",
    "city": "Glasgow",
    "postcode": "G40 3HY"
  },
  "Willington Dovecote and Stables": {
    "name": "Willington Dovecote and Stables",
    "city": "Bedfordshire",
    "postcode": "MK44 3PX"
  },
  "ZZZ_The Lowry - Pier Eight": {
    "name": "ZZZ_The Lowry - Pier Eight",
    "city": "Salford",
    "postcode": "M50 3AZ"
  },
  "Capesthorne Hall": {
    "name": "Capesthorne Hall",
    "city": "Macclesfield",
    "postcode": "SK11 9JY"
  },
  "Theatre 1, HOME": {
    "name": "Theatre 1, HOME",
    "city": "Manchester",
    "postcode": "M15 4FN"
  },
  "The Moston Miners Community Arts & Music Centre": {
    "name": "The Moston Miners Community Arts & Music Centre",
    "city": "Manchester",
    "postcode": "M40 0DJ"
  },
  "Chetham's School of Music, Baronial Hall": {
    "name": "Chetham's School of Music, Baronial Hall",
    "city": "Manchester",
    "postcode": "M3 1SB"
  },
  "The Tower Festival Headland": {
    "name": "The Tower Festival Headland",
    "city": "Blackpool",
    "postcode": "FY1 4BJ"
  },
  "Uclan Burnley Campus 2014": {
    "name": "Uclan Burnley Campus 2014",
    "city": "Burnley",
    "postcode": "BB12 0AN"
  },
  "Avenham Park Arena (General Admission)": {
    "name": "Avenham Park Arena (General Admission)",
    "city": "Preston",
    "postcode": "PR1 8JT"
  },
  "The Portland by Thistle (Unreserved Seating)": {
    "name": "The Portland by Thistle (Unreserved Seating)",
    "city": "Manchester",
    "postcode": "M1 6DP"
  },
  "Lowry (GA - 850 capacity)": {
    "name": "Lowry (GA - 850 capacity)",
    "city": "Salford",
    "postcode": null
  },
  "Lowry Academy Youth Activity 300": {
    "name": "Lowry Academy Youth Activity 300",
    "city": "Manchester",
    "postcode": null
  },
  "Norton Priory Museum and Gardens": {
    "name": "Norton Priory Museum and Gardens",
    "city": "Runcorn",
    "postcode": "WA7 1SX"
  },
  "Cinema 2, HOME": {
    "name": "Cinema 2, HOME",
    "city": "Manchester",
    "postcode": "M15 4FN"
  },
  "Sheffield Cathedral": {
    "name": "Sheffield Cathedral",
    "city": "Sheffield",
    "postcode": "S1 1HA"
  },
  "Lowry Outlet Mall": {
    "name": "Lowry Outlet Mall",
    "city": "Manchester",
    "postcode": "M50 3AH"
  },
  "The Greystones": {
    "name": "The Greystones",
    "city": "Sheffield",
    "postcode": "S11 7BS"
  },
  "MadLab": {
    "name": "MadLab",
    "city": "Manchester",
    "postcode": "M4 1HN"
  },
  "Manchester Reform Synagogue": {
    "name": "Manchester Reform Synagogue",
    "city": "Manchester",
    "postcode": "M2 5NH"
  },
  "Salford City Stadium Hospitality (Unres Seating)": {
    "name": "Salford City Stadium Hospitality (Unres Seating)",
    "city": "Manchester",
    "postcode": "M30 7EY"
  },
  "The Britannia Hotel": {
    "name": "The Britannia Hotel",
    "city": "Manchester",
    "postcode": "M1 3LA"
  },
  "The University of Salford": {
    "name": "The University of Salford",
    "city": "Salford",
    "postcode": "M3 6EQ"
  },
  "Grimsby Auditorium": {
    "name": "Grimsby Auditorium",
    "city": "Grimsby",
    "postcode": "DN31 2BH"
  },
  "Burnley Mechanics Theatre": {
    "name": "Burnley Mechanics Theatre",
    "city": "Burnley",
    "postcode": "BB11 1BH"
  },
  "zzz_Avon Valley Railway, Bristol": {
    "name": "zzz_Avon Valley Railway, Bristol",
    "city": "Bristol",
    "postcode": "BS30 6HD"
  },
  "Sabai Pavilion - La Bordello Boheme (Newcastle)": {
    "name": "Sabai Pavilion - La Bordello Boheme (Newcastle)",
    "city": "Newcastle-upon-Tyne",
    "postcode": null
  },
  "Hyde Town Hall": {
    "name": "Hyde Town Hall",
    "city": "Hyde",
    "postcode": "SK14 1AL"
  },
  "Oxford Road Station": {
    "name": "Oxford Road Station",
    "city": "Manchester",
    "postcode": "M1 5NJ"
  },
  "Riversdale Police Club Grounds": {
    "name": "Riversdale Police Club Grounds",
    "city": "Liverpool",
    "postcode": "L19 3QN"
  },
  "Mantos": {
    "name": "Mantos",
    "city": "Manchester",
    "postcode": "M1 3WD"
  },
  "Norfolk Showground": {
    "name": "Norfolk Showground",
    "city": "Norwich",
    "postcode": "NR5 0TT"
  },
  "Bulkeley Hotel": {
    "name": "Bulkeley Hotel",
    "city": "Beaumaris",
    "postcode": "LL58 8AW"
  },
  "Lee Valley VeloPark, London": {
    "name": "Lee Valley VeloPark, London",
    "city": "London",
    "postcode": "E20 3AB"
  },
  "Sheffield Central Quaker Meeting House": {
    "name": "Sheffield Central Quaker Meeting House",
    "city": "Sheffield",
    "postcode": "S1 2EW"
  },
  "Jodrell Bank": {
    "name": "Jodrell Bank",
    "city": "Macclesfield",
    "postcode": "SK11 9DW"
  },
  "Sir Chris Hoy Velodrome, Glasgow (GA)": {
    "name": "Sir Chris Hoy Velodrome, Glasgow (GA)",
    "city": "Glasgow",
    "postcode": null
  },
  "The Grange, St Pauls London (GSP)": {
    "name": "The Grange, St Pauls London (GSP)",
    "city": "London",
    "postcode": "EC4V 5AJ"
  },
  "Oldham Coliseum Theatre at University Campus": {
    "name": "Oldham Coliseum Theatre at University Campus",
    "city": "Oldham",
    "postcode": "OL1 1BB"
  },
  "Clitheroe Castle": {
    "name": "Clitheroe Castle",
    "city": "Lancashire",
    "postcode": "BB7 1BA"
  },
  "Peter Barkworth Theatre (General Admission)": {
    "name": "Peter Barkworth Theatre (General Admission)",
    "city": "Stockport",
    "postcode": "SK1 3UQ"
  },
  "Islington Mill": {
    "name": "Islington Mill",
    "city": "Manchester",
    "postcode": "M3 5HW"
  },
  "O'Sheas Bar": {
    "name": "O'Sheas Bar",
    "city": "Manchester",
    "postcode": "M1 6NF"
  },
  "Parr Hall": {
    "name": "Parr Hall",
    "city": "Warrington",
    "postcode": "WA1 1BL"
  },
  "Hilton Hotel Gateshead (HHG)": {
    "name": "Hilton Hotel Gateshead (HHG)",
    "city": "Newcastle-upon-Tyne",
    "postcode": "NE8 2AR"
  },
  "Browsholme Hall": {
    "name": "Browsholme Hall",
    "city": "Clitheroe",
    "postcode": "BB7 3DE"
  },
  "Colne Valley Railway (General Admission)": {
    "name": "Colne Valley Railway (General Admission)",
    "city": "Essex",
    "postcode": "CO9 3DZ"
  },
  "Kelburn Castle & Country Centre": {
    "name": "Kelburn Castle & Country Centre",
    "city": "Ayreshire",
    "postcode": "KA29 0BE"
  },
  "Halle St. Peter's": {
    "name": "Halle St. Peter's",
    "city": "Manchester",
    "postcode": "M4 6BF"
  },
  "Dunster Castle": {
    "name": "Dunster Castle",
    "city": "Minehead",
    "postcode": "TA24 6SL"
  },
  "Ancoats": {
    "name": "Ancoats",
    "city": "Manchester",
    "postcode": null
  },
  "The Green": {
    "name": "The Green",
    "city": "Manchester",
    "postcode": "M1 2DQ"
  },
  "Night & Day": {
    "name": "Night & Day",
    "city": "Manchester",
    "postcode": "M1 1JN"
  },
  "ZZZ_Pavilion Theatre Standing": {
    "name": "ZZZ_Pavilion Theatre Standing",
    "city": "Manchester",
    "postcode": "M2 5PE"
  },
  "Echo Arena": {
    "name": "Echo Arena",
    "city": "Liverpool",
    "postcode": "L3 4FP"
  },
  "Villaggio Restaurant": {
    "name": "Villaggio Restaurant",
    "city": "Manchester",
    "postcode": "M1 3WD"
  },
  "Geoffrey Manton Building, MMU (Seated)": {
    "name": "Geoffrey Manton Building, MMU (Seated)",
    "city": "Manchester",
    "postcode": "M15 6BH"
  },
  "O2 Apollo Manchester - MIF": {
    "name": "O2 Apollo Manchester - MIF",
    "city": "Manchester",
    "postcode": "M12 6AP"
  },
  "TAKE A SEAT - Quays": {
    "name": "TAKE A SEAT - Quays",
    "city": "Salford",
    "postcode": "M50 3AZ"
  },
  "Caernarfon Castle": {
    "name": "Caernarfon Castle",
    "city": "Gwynedd",
    "postcode": "TA24 6SL"
  },
  "Dearnford Lake, Whitchurch": {
    "name": "Dearnford Lake, Whitchurch",
    "city": "Stoke-on-Trent",
    "postcode": "SY13 3JQ"
  },
  "Penrith Library - Wordsworth Trust": {
    "name": "Penrith Library - Wordsworth Trust",
    "city": "Cumbria",
    "postcode": "CA11 7YA"
  },
  "The Glass House": {
    "name": "The Glass House",
    "city": "Manchester",
    "postcode": "M2 5DB"
  },
  "Manchester City Library, Elliot House": {
    "name": "Manchester City Library, Elliot House",
    "city": "Manchester",
    "postcode": "M3 3WD"
  },
  "ZZZ_National Cycling Centre - General Admission": {
    "name": "ZZZ_National Cycling Centre - General Admission",
    "city": "Manchester",
    "postcode": "M11 4DQ"
  },
  "Hollycroft Park, Hinckley": {
    "name": "Hollycroft Park, Hinckley",
    "city": "Hinckley",
    "postcode": "LE10 0HG"
  },
  "Borde Hill Garden": {
    "name": "Borde Hill Garden",
    "city": "Haywards Heath",
    "postcode": "RH16 1XP"
  },
  "Oldham Coliseum at Grange Arts Centre - End On": {
    "name": "Oldham Coliseum at Grange Arts Centre - End On",
    "city": "Oldham",
    "postcode": "OL9 6EA"
  },
  "RNCM Theatre Unreserved": {
    "name": "RNCM Theatre Unreserved",
    "city": "Manchester",
    "postcode": "M15 6BH"
  },
  "Upper Campfield Market Hall": {
    "name": "Upper Campfield Market Hall",
    "city": "Manchester",
    "postcode": "M3 4FH"
  },
  "ZZZ_Bridgewater Hall (MIF)": {
    "name": "ZZZ_Bridgewater Hall (MIF)",
    "city": "Manchester",
    "postcode": "M2 3WS"
  },
  "Maryport Library - Wordsworth Trust": {
    "name": "Maryport Library - Wordsworth Trust",
    "city": "Cumbria",
    "postcode": "CA15 6ND"
  },
  "West Woodhay House": {
    "name": "West Woodhay House",
    "city": "Newbury",
    "postcode": "RG20 0BS"
  },
  "Southern Cemetery (SOU)": {
    "name": "Southern Cemetery (SOU)",
    "city": "Manchester",
    "postcode": "M21 7GL"
  },
  "zzz_Avon Valley Railway, Verson Two": {
    "name": "zzz_Avon Valley Railway, Verson Two",
    "city": "Bristol",
    "postcode": "BS30 6HD"
  },
  "Heptonstall Parish Church": {
    "name": "Heptonstall Parish Church",
    "city": "Hebden Bridge",
    "postcode": "HX7 7NS"
  },
  "The Redgrave Theatre": {
    "name": "The Redgrave Theatre",
    "city": "Bristol",
    "postcode": "BS8 3JH"
  },
  "Arley Hall": {
    "name": "Arley Hall",
    "city": "Northwich",
    "postcode": "CW6 6NA"
  },
  "City Airport": {
    "name": "City Airport",
    "city": "Manchester",
    "postcode": "M30 7SA"
  },
  "Sachas Hotel, Ballroom": {
    "name": "Sachas Hotel, Ballroom",
    "city": "Manchester",
    "postcode": "M4 1SH"
  },
  "Soothill Hall, Ashville College": {
    "name": "Soothill Hall, Ashville College",
    "city": "Harrogate",
    "postcode": "HG2 9JP"
  },
  "Dorney Court": {
    "name": "Dorney Court",
    "city": "Windsor",
    "postcode": "SL4 6QP"
  },
  "Bearded Theory 2013": {
    "name": "Bearded Theory 2013",
    "city": "Derby",
    "postcode": "DE22 5JQ"
  },
  "MIF Test Venue C (Lyric)": {
    "name": "MIF Test Venue C (Lyric)",
    "city": "Manchester",
    "postcode": "M50 3AZ"
  },
  "Stand Parish Church, Whitefield, M45 7NF": {
    "name": "Stand Parish Church, Whitefield, M45 7NF",
    "city": "Manchester",
    "postcode": "M45 7NF"
  },
  "Co-operative Bank Branch": {
    "name": "Co-operative Bank Branch",
    "city": "Manchester",
    "postcode": "M4 4BE"
  },
  "St Mary's Church": {
    "name": "St Mary's Church",
    "city": "Henley",
    "postcode": "RG9 2AU"
  },
  "TAKE A SEAT - Studio": {
    "name": "TAKE A SEAT - Studio",
    "city": "Salford",
    "postcode": "M50 3AZ"
  },
  "Piccadilly Gardens (1500 cap)": {
    "name": "Piccadilly Gardens (1500 cap)",
    "city": "Manchester",
    "postcode": "M1 1LS"
  },
  "MIF Test Venue A (GA)": {
    "name": "MIF Test Venue A (GA)",
    "city": "Manchester",
    "postcode": null
  },
  "The Yard Theatre": {
    "name": "The Yard Theatre",
    "city": "Manchester",
    "postcode": null
  },
  "MIF Macbeth (test venue)": {
    "name": "MIF Macbeth (test venue)",
    "city": "Manchester",
    "postcode": "M40 1XX"
  },
  "Bristol Festivals Reserved": {
    "name": "Bristol Festivals Reserved",
    "city": "Bristol",
    "postcode": null
  },
  "RARE Studio's": {
    "name": "RARE Studio's",
    "city": "Liverpool",
    "postcode": "L1 4JA"
  },
  "Alice Holt Forest": {
    "name": "Alice Holt Forest",
    "city": "Farnham",
    "postcode": "GU10 4LS"
  },
  "Kings House": {
    "name": "Kings House",
    "city": "Bedford",
    "postcode": "MK42 9AZ"
  },
  "Princess Theatre Torquay (PRI)": {
    "name": "Princess Theatre Torquay (PRI)",
    "city": "Torquay",
    "postcode": "TQ2 5EZ"
  },
  "Vilaggio": {
    "name": "Vilaggio",
    "city": "Manchester",
    "postcode": "M1 3WD"
  },
  "Barbirolli Room, Bridgewater Hall": {
    "name": "Barbirolli Room, Bridgewater Hall",
    "city": "Manchester",
    "postcode": "M2 3WS"
  },
  "The Venue": {
    "name": "The Venue",
    "city": "Derby",
    "postcode": "DE22 3SJ"
  },
  "Palace Hotel (Unreserved)": {
    "name": "Palace Hotel (Unreserved)",
    "city": "Manchester",
    "postcode": "M60 7HA"
  },
  "Lancaster Town Hall": {
    "name": "Lancaster Town Hall",
    "city": "Lancaster",
    "postcode": "LA1 1PJ"
  },
  "Cross Street Chapel": {
    "name": "Cross Street Chapel",
    "city": "Manchester",
    "postcode": "M2 1NL"
  },
  "Hope Mill Theatre": {
    "name": "Hope Mill Theatre",
    "city": "Manchester",
    "postcode": "M4 7JA"
  },
  "Chetham's Library": {
    "name": "Chetham's Library",
    "city": "Manchester",
    "postcode": "M3 1SB"
  },
  "Club IXIV (Nine Four)": {
    "name": "Club IXIV (Nine Four)",
    "city": "Manchester",
    "postcode": "M1 7HL"
  },
  "Soup Kitchen": {
    "name": "Soup Kitchen",
    "city": "Manchester",
    "postcode": null
  },
  "Chatsworth": {
    "name": "Chatsworth",
    "city": "Bakewell",
    "postcode": "DE45 1PP"
  },
  "Cockermouth Library - Wordsworth Trust": {
    "name": "Cockermouth Library - Wordsworth Trust",
    "city": "Cumbria",
    "postcode": "CA13 9LU"
  },
  "Glastonbury 2016": {
    "name": "Glastonbury 2016",
    "city": "Somerset",
    "postcode": null
  },
  "YES Basement": {
    "name": "YES Basement",
    "city": "Manchester",
    "postcode": "M1 7DB"
  },
  "MIF Test Venue B (Quays)": {
    "name": "MIF Test Venue B (Quays)",
    "city": "Manchester",
    "postcode": "M50 3AZ"
  },
  "Tate Britain": {
    "name": "Tate Britain",
    "city": "London",
    "postcode": "SW1P 4RG"
  },
  "Stoller Hall, Chetham's School of Music": {
    "name": "Stoller Hall, Chetham's School of Music",
    "city": "Manchester",
    "postcode": "M3 1UN"
  },
  "Hedsor House (HED)": {
    "name": "Hedsor House (HED)",
    "city": "Taplow",
    "postcode": "SL6 0HX"
  },
  "HOME - General Admission": {
    "name": "HOME - General Admission",
    "city": "Manchester",
    "postcode": "M15 4FN"
  },
  "Hallé St Peters": {
    "name": "Hallé St Peters",
    "city": "Manchester",
    "postcode": "M4 6BF"
  },
  "Lowry Compass Room": {
    "name": "Lowry Compass Room",
    "city": "Manchester",
    "postcode": "M50 3AZ"
  },
  "Chiswick Town Hall": {
    "name": "Chiswick Town Hall",
    "city": "London",
    "postcode": "W4 4JN"
  },
  "MCR Metropolitan University Business School": {
    "name": "MCR Metropolitan University Business School",
    "city": "Manchester",
    "postcode": "M15 6BH"
  },
  "Wales Millennium Centre": {
    "name": "Wales Millennium Centre",
    "city": "Cardiff",
    "postcode": "CF10 5AL"
  },
  "Congleton Town Football Ground": {
    "name": "Congleton Town Football Ground",
    "city": "Congleton",
    "postcode": "CW12 4DG"
  },
  "Ludus Dance": {
    "name": "Ludus Dance",
    "city": "Lancaster",
    "postcode": "LA1 1RE"
  },
  "Radisson Edwardian": {
    "name": "Radisson Edwardian",
    "city": "Manchester",
    "postcode": "M2 5GP"
  },
  "St Mary's Church, Pakenham": {
    "name": "St Mary's Church, Pakenham",
    "city": "Pakenham",
    "postcode": "IP31 2LN"
  },
  "Sir James Hawkey Hall": {
    "name": "Sir James Hawkey Hall",
    "city": "Essex",
    "postcode": "IG8 0BG"
  },
  "Manchester Academy 2 (Seated)": {
    "name": "Manchester Academy 2 (Seated)",
    "city": "Manchester",
    "postcode": "M13 9PR"
  },
  "Marks and Spencer": {
    "name": "Marks and Spencer",
    "city": "Manchester",
    "postcode": "M1 1WT"
  },
  "Yes Manchester": {
    "name": "Yes Manchester",
    "city": "Manchester",
    "postcode": "M1 7BD"
  },
  "Platt Fields Park": {
    "name": "Platt Fields Park",
    "city": "Manchester",
    "postcode": "M14 6LA"
  },
  "Art Theatre": {
    "name": "Art Theatre",
    "city": "New Mills",
    "postcode": "SK22 3HJ"
  },
  "Moss Side Powerhouse Library": {
    "name": "Moss Side Powerhouse Library",
    "city": "Manchester",
    "postcode": "M14 4SL"
  },
  "Catholic Church, Beaumaris": {
    "name": "Catholic Church, Beaumaris",
    "city": "Beaumaris",
    "postcode": "LL58 8AF"
  },
  "Coronation Hall": {
    "name": "Coronation Hall",
    "city": "Ulverston",
    "postcode": "LA12 7LZ"
  },
  "Barnabas Church Centre": {
    "name": "Barnabas Church Centre",
    "city": "Shrewsbury",
    "postcode": "GU15 2AD"
  },
  "Hanbury Manor Hotel & Country Club (HAN)": {
    "name": "Hanbury Manor Hotel & Country Club (HAN)",
    "city": "Ware",
    "postcode": "SG12 0SD"
  },
  "Leicester Grammar School": {
    "name": "Leicester Grammar School",
    "city": "Leicester",
    "postcode": "LE8 9FL"
  },
  "Bearwood Theatre": {
    "name": "Bearwood Theatre",
    "city": "Berkshire",
    "postcode": "RG41 5BG"
  },
  "The Daffodil Hotel & Spa - Wordsworth Trust": {
    "name": "The Daffodil Hotel & Spa - Wordsworth Trust",
    "city": "Cumbria",
    "postcode": "LA22 9PR"
  },
  "Mint Lounge": {
    "name": "Mint Lounge",
    "city": "Manchester",
    "postcode": "M4 1LE"
  },
  "Duntreath Castle": {
    "name": "Duntreath Castle",
    "city": "Glasgow",
    "postcode": "G63 9AJ"
  },
  "Coach Stop, Albert Square": {
    "name": "Coach Stop, Albert Square",
    "city": "Manchester",
    "postcode": null
  },
  "Jersey War Tunnels": {
    "name": "Jersey War Tunnels",
    "city": "Jersey",
    "postcode": "JE3 1FU"
  },
  "Marriott Hotel Liverpool (MHL)": {
    "name": "Marriott Hotel Liverpool (MHL)",
    "city": "Liverpool",
    "postcode": "L1 1RH"
  },
  "Barnsley Metrodome (Unreserved)": {
    "name": "Barnsley Metrodome (Unreserved)",
    "city": "Barnsley",
    "postcode": "S71 1AN"
  },
  "RARE Studios": {
    "name": "RARE Studios",
    "city": "Liverpool",
    "postcode": "L1 4AQ"
  },
  "Millom Library - Wordsworth Trust": {
    "name": "Millom Library - Wordsworth Trust",
    "city": "Cumbria",
    "postcode": "LA18 4DD"
  },
  "Wellington Mill": {
    "name": "Wellington Mill",
    "city": "Manchester",
    "postcode": "M40 7FS"
  },
  "Boconnoc": {
    "name": "Boconnoc",
    "city": "Cornwall",
    "postcode": "PL22 0RQ"
  },
  "The De La Salle Theatre": {
    "name": "The De La Salle Theatre",
    "city": "Bournemouth",
    "postcode": "BH6 4AH"
  },
  "Legends": {
    "name": "Legends",
    "city": "Manchester",
    "postcode": "M1 3QW"
  },
  "Rutland Water": {
    "name": "Rutland Water",
    "city": "Oakham",
    "postcode": "LE15 8QL"
  },
  "Manchester Jewish Museum (Reserved Seating)": {
    "name": "Manchester Jewish Museum (Reserved Seating)",
    "city": "Manchester",
    "postcode": "M8 8LW"
  },
  "Bridport Arts Centre (Cabaret)": {
    "name": "Bridport Arts Centre (Cabaret)",
    "city": "Bridport",
    "postcode": "DT6 3NR"
  },
  "Bowdon Rooms - Reserved Plan": {
    "name": "Bowdon Rooms - Reserved Plan",
    "city": "Altrincham",
    "postcode": "WA14 2TQ"
  },
  "London Coliseum": {
    "name": "London Coliseum",
    "city": "London",
    "postcode": "WC2N 4ES"
  },
  "Deaf Institute": {
    "name": "Deaf Institute",
    "city": "Manchester",
    "postcode": "M1 7HE"
  },
  "Castle Howard": {
    "name": "Castle Howard",
    "city": "York",
    "postcode": "YO60 7DA"
  },
  "Lytes Cary Manor": {
    "name": "Lytes Cary Manor",
    "city": "Somerton",
    "postcode": "TA11 7HU"
  },
  "Main Hall, Wheatley Park School": {
    "name": "Main Hall, Wheatley Park School",
    "city": "Oxford",
    "postcode": "OX33 1QH"
  },
  "Working Class Movement Library, Salford": {
    "name": "Working Class Movement Library, Salford",
    "city": "Salford",
    "postcode": "M5 4WX"
  },
  "INNSIDE Manchester": {
    "name": "INNSIDE Manchester",
    "city": "Manchester",
    "postcode": "M15 4RP"
  },
  "Heywood Civic Centre": {
    "name": "Heywood Civic Centre",
    "city": "Rochdale",
    "postcode": "OL10 1LW"
  },
  "National Cycling Centre (2012 Plan)": {
    "name": "National Cycling Centre (2012 Plan)",
    "city": "Manchester",
    "postcode": "M11 4DQ"
  },
  "Big Top, Avenham Park": {
    "name": "Big Top, Avenham Park",
    "city": "Preston",
    "postcode": "PR1 8JT"
  },
  "West Wing Arts Centre": {
    "name": "West Wing Arts Centre",
    "city": "Slough",
    "postcode": "SL2 5AY"
  },
  "Keswick Library - Wordsworth Trust": {
    "name": "Keswick Library - Wordsworth Trust",
    "city": "Cumbria",
    "postcode": "CA12 5HD"
  },
  "Mytholmroyd Station, West Yorkshire": {
    "name": "Mytholmroyd Station, West Yorkshire",
    "city": "Yorkshire",
    "postcode": "HX7 5EA"
  },
  "Ulster Gallery, Irish World Heritage Centre": {
    "name": "Ulster Gallery, Irish World Heritage Centre",
    "city": "Manchester",
    "postcode": "M8 0AE"
  },
  "KC Lightstream Stadium": {
    "name": "KC Lightstream Stadium",
    "city": "Hull",
    "postcode": "HU9 5HE"
  },
  "NIA Centre": {
    "name": "NIA Centre",
    "city": "Manchester",
    "postcode": "M15 5EU"
  },
  "St. Mary's on the Hill": {
    "name": "St. Mary's on the Hill",
    "city": "Chester",
    "postcode": "CH1 2DW"
  },
  "Park Inn, Cheetham Hill Road": {
    "name": "Park Inn, Cheetham Hill Road",
    "city": "Manchester",
    "postcode": "M4 4EW"
  },
  "Towneley Hall": {
    "name": "Towneley Hall",
    "city": "Burnley",
    "postcode": "BB11 3RQ"
  },
  "Ulverston Library - Wordsworth Trust": {
    "name": "Ulverston Library - Wordsworth Trust",
    "city": "Cumbria",
    "postcode": "LA12 0BT"
  },
  "Greenford Assembly Hall": {
    "name": "Greenford Assembly Hall",
    "city": "Middlesex",
    "postcode": "UB6 9QN"
  },
  "Pop Up Cinema @ 1830 Warehouse": {
    "name": "Pop Up Cinema @ 1830 Warehouse",
    "city": "Manchester",
    "postcode": null
  },
  "Wigton Library - Wordsworth Trust": {
    "name": "Wigton Library - Wordsworth Trust",
    "city": "Cumbria",
    "postcode": "CA7 9NJ"
  },
  "Whitty Theatre Wokingham": {
    "name": "Whitty Theatre Wokingham",
    "city": "Berkshire",
    "postcode": "RG40 3EU"
  },
  "Old Trafford": {
    "name": "Old Trafford",
    "city": "Manchester",
    "postcode": "M16 0RA"
  },
  "Black Lion Public House": {
    "name": "Black Lion Public House",
    "city": "Salford",
    "postcode": "M3 5BZ"
  },
  "Cloud 23 - Hilton Hotel": {
    "name": "Cloud 23 - Hilton Hotel",
    "city": "Manchester",
    "postcode": "M3 4LQ"
  },
  "Lowry Academy Adult Theatre Activity 300": {
    "name": "Lowry Academy Adult Theatre Activity 300",
    "city": "Manchester",
    "postcode": null
  },
  "Oxford Town Hall": {
    "name": "Oxford Town Hall",
    "city": "Oxford",
    "postcode": "OX1 1BX"
  },
  "Manchester Academy 2": {
    "name": "Manchester Academy 2",
    "city": "Manchester",
    "postcode": "M13 9PR"
  },
  "Whitehaven Archive Centre": {
    "name": "Whitehaven Archive Centre",
    "city": "Cumbria",
    "postcode": "CA28 7NL"
  },
  "Velvet Central": {
    "name": "Velvet Central",
    "city": "Manchester",
    "postcode": "M2 5WQ"
  },
  "Brewery Arts Centre": {
    "name": "Brewery Arts Centre",
    "city": "Cumbria",
    "postcode": "LA9 4HE"
  },
  "Belmont House, Faversham": {
    "name": "Belmont House, Faversham",
    "city": "Faversham",
    "postcode": "ME13 0HH"
  },
  "University Of Manchester, Stopford Building": {
    "name": "University Of Manchester, Stopford Building",
    "city": "Manchester",
    "postcode": "M13 9PG"
  },
  "Winsford Lifestyle Centre": {
    "name": "Winsford Lifestyle Centre",
    "city": "Winsford",
    "postcode": "CW7 1AD"
  },
  "Lowry Quays (GA Stage Level and T1)": {
    "name": "Lowry Quays (GA Stage Level and T1)",
    "city": "The Lowry",
    "postcode": "M50 3AZ"
  },
  "Farington Lodge": {
    "name": "Farington Lodge",
    "city": "Leyland",
    "postcode": "PR25 4QR"
  },
  "Chinese Arts Centre": {
    "name": "Chinese Arts Centre",
    "city": "Manchester",
    "postcode": "M4 1EU"
  },
  "Layton Institute": {
    "name": "Layton Institute",
    "city": "Blackpool",
    "postcode": "FY3 7HG"
  },
  "Pyramid & Parr Hall": {
    "name": "Pyramid & Parr Hall",
    "city": "Warrington",
    "postcode": "WA1 1BL"
  },
  "Travel Lodge, Great Ancoats Street": {
    "name": "Travel Lodge, Great Ancoats Street",
    "city": "Manchester",
    "postcode": "M4 5AZ"
  },
  "YHA Manchester Conference Centre": {
    "name": "YHA Manchester Conference Centre",
    "city": "Manchester",
    "postcode": "M3 4NB"
  },
  "Harewood House": {
    "name": "Harewood House",
    "city": "Leeds",
    "postcode": "LS17 9LG"
  },
  "Marrs Bar": {
    "name": "Marrs Bar",
    "city": "Worcester",
    "postcode": "WR1 1TA"
  },
  "Preston Guild Hall - Grand Hall": {
    "name": "Preston Guild Hall - Grand Hall",
    "city": "Preston",
    "postcode": "PR1 1HT"
  },
  "The Willows Variety Centre": {
    "name": "The Willows Variety Centre",
    "city": "Salford",
    "postcode": "M5 5FQ"
  },
  "St Helens Town Hall": {
    "name": "St Helens Town Hall",
    "city": "St Helens",
    "postcode": "WA10 1HP"
  },
  "Hendon Hall Hotel": {
    "name": "Hendon Hall Hotel",
    "city": "London",
    "postcode": "N20 9EZ"
  },
  "Crowne Plaza & Staybridge Suites": {
    "name": "Crowne Plaza & Staybridge Suites",
    "city": "Manchester",
    "postcode": "M15 6PQ"
  },
  "The Pavilion (Unreserved)": {
    "name": "The Pavilion (Unreserved)",
    "city": "Manchester",
    "postcode": "M16 0PX"
  },
  "The Imperial Hotel, Blackpool": {
    "name": "The Imperial Hotel, Blackpool",
    "city": "Blackpool",
    "postcode": "FY1 2HB"
  },
  "The Forum": {
    "name": "The Forum",
    "city": "Manchester",
    "postcode": "M22 5RX"
  },
  "Bowdon Rooms - Table Layout": {
    "name": "Bowdon Rooms - Table Layout",
    "city": "Altrincham",
    "postcode": "WA14 2TQ"
  },
  "Bright Building (Manchester Science Park)": {
    "name": "Bright Building (Manchester Science Park)",
    "city": "Manchester",
    "postcode": "M15 5ZA"
  },
  "Festival Theatre Edinburgh": {
    "name": "Festival Theatre Edinburgh",
    "city": "Scotland",
    "postcode": "EH8 9FT"
  },
  "Newbiggin Village Hall": {
    "name": "Newbiggin Village Hall",
    "city": "Penrith",
    "postcode": "CA11 0HT"
  },
  "The Alhambra Theatre": {
    "name": "The Alhambra Theatre",
    "city": "Bradford",
    "postcode": "BD7 1AJ"
  },
  "Burwell House": {
    "name": "Burwell House",
    "city": "Cambridgeshire",
    "postcode": "CB25 0BB"
  },
  "The Media Factory": {
    "name": "The Media Factory",
    "city": "Preston",
    "postcode": "PR1 2XY"
  },
  "Bolton Library Theatre 2020 (GA)": {
    "name": "Bolton Library Theatre 2020 (GA)",
    "city": "Bolton",
    "postcode": null
  },
  "Eaton Bank School": {
    "name": "Eaton Bank School",
    "city": "Congleton",
    "postcode": "CW12 1NT"
  },
  "St Michael's Church": {
    "name": "St Michael's Church",
    "city": "Ascot",
    "postcode": "RG29 2AU"
  },
  "Blackburn Cathedral": {
    "name": "Blackburn Cathedral",
    "city": "Lancashire",
    "postcode": "BB1 5AA"
  },
  "The Forum (Unreserved)": {
    "name": "The Forum (Unreserved)",
    "city": "Manchester",
    "postcode": "M22 5RX"
  },
  "The Longfield Suite": {
    "name": "The Longfield Suite",
    "city": "Manchester",
    "postcode": "M25 1AY"
  },
  "St Marylebone Church": {
    "name": "St Marylebone Church",
    "city": "London",
    "postcode": "NW1 5LT"
  },
  "Hamptonne": {
    "name": "Hamptonne",
    "city": "Jersey",
    "postcode": "JE3 1HS"
  },
  "Beetham Tower": {
    "name": "Beetham Tower",
    "city": "Manchester",
    "postcode": "M3 4LQ"
  },
  "Manchester Met. University - John Dalton Building": {
    "name": "Manchester Met. University - John Dalton Building",
    "city": "Manchester",
    "postcode": "M1 5GD"
  },
  "Crewe Test Venue": {
    "name": "Crewe Test Venue",
    "city": "Manchester",
    "postcode": null
  },
  "Britannia Stadium": {
    "name": "Britannia Stadium",
    "city": "Stoke-on-Trent",
    "postcode": "ST4 4EG"
  },
  "Quay House, MediaCityUK": {
    "name": "Quay House, MediaCityUK",
    "city": "Manchester",
    "postcode": "M50 3SQ"
  },
  "Seaton Library - Wordsworth Trust": {
    "name": "Seaton Library - Wordsworth Trust",
    "city": "Cumbria",
    "postcode": "CA14 1JD"
  },
  "Ricoh Arena": {
    "name": "Ricoh Arena",
    "city": "Coventry",
    "postcode": "CV6 6GE"
  },
  "St. Swithun's School Performing Arts Centre": {
    "name": "St. Swithun's School Performing Arts Centre",
    "city": "Wincester",
    "postcode": "SO21 1HA"
  },
  "Proud2 O2": {
    "name": "Proud2 O2",
    "city": "London",
    "postcode": "SE10 0DX"
  },
  "MacDonald Townhouse Hotel": {
    "name": "MacDonald Townhouse Hotel",
    "city": "Manchester",
    "postcode": "M1 6DF"
  },
  "Gracie Fields Theatre (unreserved)": {
    "name": "Gracie Fields Theatre (unreserved)",
    "city": "Rochdale",
    "postcode": "OL11 5EF"
  },
  "Wollaton Park": {
    "name": "Wollaton Park",
    "city": "Nottingham",
    "postcode": "NG8 2AE"
  },
  "Portland Thistle Hotel": {
    "name": "Portland Thistle Hotel",
    "city": "Manchester",
    "postcode": "M1 6DP"
  },
  "Marriott Hotel Grosvenor Sq London (MGL)": {
    "name": "Marriott Hotel Grosvenor Sq London (MGL)",
    "city": "London",
    "postcode": "W1K 6JP"
  },
  "Shap Library - Wordsworth Trust": {
    "name": "Shap Library - Wordsworth Trust",
    "city": "Cumbria",
    "postcode": "CA10 3NL"
  },
  "Edgehill University": {
    "name": "Edgehill University",
    "city": "Lancashire",
    "postcode": "L39 4QP"
  },
  "Kosmonaut": {
    "name": "Kosmonaut",
    "city": "Manchester",
    "postcode": "M1 2FF"
  },
  "Workington Library - Wordsworth Trust": {
    "name": "Workington Library - Wordsworth Trust",
    "city": "Cumbria",
    "postcode": "CA14 2ND"
  },
  "St Paul's Church": {
    "name": "St Paul's Church",
    "city": "Camberley",
    "postcode": "GU15 2AD"
  },
  "Lowry Christmas Appeal Raffle": {
    "name": "Lowry Christmas Appeal Raffle",
    "city": "The Lowry",
    "postcode": null
  },
  "The London Stadium": {
    "name": "The London Stadium",
    "city": "London",
    "postcode": "E20 2ST"
  },
  "Dot to Dot": {
    "name": "Dot to Dot",
    "city": "National",
    "postcode": null
  },
  "Florence Mine": {
    "name": "Florence Mine",
    "city": "Egremont",
    "postcode": "CA22 2NR"
  },
  "Harrow Arts Centre": {
    "name": "Harrow Arts Centre",
    "city": "Harrow",
    "postcode": "HA5 4EA"
  },
  "Zebra Claims Stadium": {
    "name": "Zebra Claims Stadium",
    "city": "Workington",
    "postcode": "CA14 2HG"
  },
  "St. Mary's Parish Church, Beaumaris": {
    "name": "St. Mary's Parish Church, Beaumaris",
    "city": "Beaumaris",
    "postcode": "LL58 8AB"
  },
  "Haworth Steam Railway Station": {
    "name": "Haworth Steam Railway Station",
    "city": "National",
    "postcode": "BD22 8NJ"
  },
  "Manchester Met. University - Student Zone": {
    "name": "Manchester Met. University - Student Zone",
    "city": "MMU Campus, Crewe, CW1 5DU",
    "postcode": "CW1 5DU"
  },
  "Church Hill Theatre": {
    "name": "Church Hill Theatre",
    "city": "Edinburgh",
    "postcode": "EH10 4DR"
  },
  "Ramsbottom Cricket Club": {
    "name": "Ramsbottom Cricket Club",
    "city": "Bury",
    "postcode": "BL0 0BS"
  },
  "The Stoller Hall": {
    "name": "The Stoller Hall",
    "city": "Manchester",
    "postcode": "M3 1DA"
  },
  "Milton Keynes Christian Centre": {
    "name": "Milton Keynes Christian Centre",
    "city": "Milton Keynes",
    "postcode": "MK6 2TG"
  },
  "Allerdale COSC - Wordsworth Trust": {
    "name": "Allerdale COSC - Wordsworth Trust",
    "city": "Cumbria",
    "postcode": "CA15 7BD"
  },
  "St Georges Hall": {
    "name": "St Georges Hall",
    "city": "Liverpool",
    "postcode": "L1 1JJ"
  },
  "Cosmo Rodewald Concert Hall - MIF": {
    "name": "Cosmo Rodewald Concert Hall - MIF",
    "city": "Manchester",
    "postcode": "M13 9PL"
  },
  "Auditorium": {
    "name": "Auditorium",
    "city": "Manchester",
    "postcode": null
  },
  "Lowry Quays (with Stalls Tier tables)": {
    "name": "Lowry Quays (with Stalls Tier tables)",
    "city": "The Lowry",
    "postcode": "M50 3AZ"
  },
  "Manchester Academy 3": {
    "name": "Manchester Academy 3",
    "city": "Manchester",
    "postcode": "M13 9PR"
  },
  "St Pancreas Renaissance Hotel (SPR)": {
    "name": "St Pancreas Renaissance Hotel (SPR)",
    "city": "London",
    "postcode": "NW1 2AR"
  },
  "Heaton Park": {
    "name": "Heaton Park",
    "city": "Manchester",
    "postcode": "M25 2SW"
  },
  "Richard Goodall Gallery": {
    "name": "Richard Goodall Gallery",
    "city": "Manchester",
    "postcode": "M4 1NA"
  },
  "The Union, MMU": {
    "name": "The Union, MMU",
    "city": "Manchester",
    "postcode": "M15 6LL"
  },
  "Mechanics Institute": {
    "name": "Mechanics Institute",
    "city": "Manchester",
    "postcode": "M1 6DD"
  },
  "HMV Ritz Manchester (Standing)": {
    "name": "HMV Ritz Manchester (Standing)",
    "city": "Manchester",
    "postcode": "M1 5NQ"
  },
  "Birmingham Hippodrome (BMH)": {
    "name": "Birmingham Hippodrome (BMH)",
    "city": "Birmingham",
    "postcode": "B5 4TB"
  },
  "East Lancashire Railway, Dining (GA)": {
    "name": "East Lancashire Railway, Dining (GA)",
    "city": "Bury",
    "postcode": null
  },
  "Lancaster Priory": {
    "name": "Lancaster Priory",
    "city": "Lancaster",
    "postcode": "LA1 1YZ"
  }
}